OBJECTID,FEATURETYPE,DESCRIPTION,CLASS,FID,NAME,OPERATIONALSTATUS,LOCALGOVERNMENTAREA_LGA,ADDRESS,SUBURB,STATE,SPATIALCONFIDENCE,REVISED,COMMENT,LATITUDE,LONGITUDE
1,Council Office,A facility where a Local Government’s main council operations are regularly performed,Council Office,1,Albury City Council,Operational,Albury (C),553 Kiewa Street,Albury,New South Wales,5,20141201,,-36.0776549999999,146.915895
2,Council Office,A facility where a Local Government’s main council operations are regularly performed,Council Office,2,Armidale Dumaresq Council,Operational,Armidale Dumaresq (A),135 Rusden Street,Armidale,New South Wales,5,20141201,,-30.5144779999999,151.665574
3,Council Office,A facility where a Local Government’s main council operations are regularly performed,Council Office,3,Ashfield Council,Operational,Ashfield (A),260 Liverpool Road,Ashfield,New South Wales,5,20141201,,-33.8888459999999,151.124226
4,Council Office,A facility where a Local Government’s main council operations are regularly performed,Council Office,4,Auburn City Council,Operational,Auburn (C),1 Susan Street,Auburn,New South Wales,5,20141202,,-33.853288,151.033589
5,Council Office,A facility where a Local Government’s main council operations are regularly performed,Council Office,5,Ballina Shire Council,Operational,Ballina (A),40 Cherry Street,Ballina,New South Wales,5,20141208,,-28.869447,153.561789
6,Council Office,A facility where a Local Government’s main council operations are regularly performed,Council Office,6,Balranald Shire Council,Operational,Balranald (A),70 Market Street,Balranald,New South Wales,5,20141208,,-34.6416369999999,143.565534
7,Council Office,A facility where a Local Government’s main council operations are regularly performed,Council Office,7,Bankstown City Council,Operational,Bankstown (C),66-72 Rickard Road,Bankstown,New South Wales,5,20141208,,-33.914996,151.036484
8,Council Office,A facility where a Local Government’s main council operations are regularly performed,Council Office,8,Bathurst Regional Council,Operational,Bathurst Regional (A),158 Russell Street,Bathurst,New South Wales,5,20141208,,-33.4186129999999,149.579137
9,Council Office,A facility where a Local Government’s main council operations are regularly performed,Council Office,9,Bega Valley Shire Council,Operational,Bega Valley (A),Zingel Place,Bega,New South Wales,5,20141208,,-36.675777,149.842161
10,Council Office,A facility where a Local Government’s main council operations are regularly performed,Council Office,10,Bellingen Shire Council,Operational,Bellingen (A),33-39 Hyde Street,Bellingen,New South Wales,4,20141208,,-30.451721,152.898729
11,Council Office,A facility where a Local Government’s main council operations are regularly performed,Council Office,11,Berrigan Shire Council,Operational,Berrigan (A),56 Chanter Street,Berrigan,New South Wales,5,20141208,,-35.6574189999999,145.808983
12,Council Office,A facility where a Local Government’s main council operations are regularly performed,Council Office,12,Blacktown City Council,Operational,Blacktown (C),62 Flushcombe Road,Blacktown,New South Wales,5,20141208,,-33.7717,150.908458
13,Council Office,A facility where a Local Government’s main council operations are regularly performed,Council Office,13,Bland Shire Council,Operational,Bland (A),6-8 Shire Street,West Wyalong,New South Wales,5,20141208,,-33.9244219999999,147.203786
14,Council Office,A facility where a Local Government’s main council operations are regularly performed,Council Office,14,Blayney Shire Council,Operational,Blayney (A),91 Adelaide Street,Blayney,New South Wales,5,20141208,,-33.5302389999999,149.255367
15,Council Office,A facility where a Local Government’s main council operations are regularly performed,Council Office,15,Blue Mountains City Council,Operational,Blue Mountains (C),2-6 Civic Place,Katoomba,New South Wales,5,20141208,,-33.7106899999999,150.312588
16,Council Office,A facility where a Local Government’s main council operations are regularly performed,Council Office,16,Bogan Shire Council,Operational,Bogan (A),81-83 Cobar Street,Nyngan,New South Wales,5,20141208,,-31.563972,147.194535
17,Council Office,A facility where a Local Government’s main council operations are regularly performed,Council Office,17,Bombala Council,Operational,Bombala (A),71 Caveat Street,Bombala,New South Wales,4,20141208,,-36.9130959999999,149.239601
18,Council Office,A facility where a Local Government’s main council operations are regularly performed,Council Office,18,Boorowa Council,Operational,Boorowa (A),6-8 Market Street,Boorowa,New South Wales,5,20141208,,-34.437192,148.718245
19,Council Office,A facility where a Local Government’s main council operations are regularly performed,Council Office,19,Botany Bay City Council,Operational,Botany Bay (C),141 Coward Street,Mascot,New South Wales,5,20141208,,-33.9257709999999,151.196287
20,Council Office,A facility where a Local Government’s main council operations are regularly performed,Council Office,20,Bourke Shire Council,Operational,Bourke (A),29 Mitchell Street,Bourke,New South Wales,5,20141208,,-30.088516,145.93701
21,Council Office,A facility where a Local Government’s main council operations are regularly performed,Council Office,21,Brewarrina Shire Council,Operational,Brewarrina (A),57 Bathurst Street,Brewarrina,New South Wales,4,20141208,,-29.9610319999999,146.857565
22,Council Office,A facility where a Local Government’s main council operations are regularly performed,Council Office,22,Broken Hill City Council,Operational,Broken Hill (C),240 Blende Street,Broken Hill,New South Wales,5,20141208,,-31.958563,141.462043
23,Council Office,A facility where a Local Government’s main council operations are regularly performed,Council Office,23,Burwood Council,Operational,Burwood (A),1-17 Elsie Street,Burwood,New South Wales,4,20141208,,-33.875394,151.102746
24,Council Office,A facility where a Local Government’s main council operations are regularly performed,Council Office,24,Byron Shire Council,Operational,Byron (A),70-90 Station Street,Mullumbimby,New South Wales,4,20141209,,-28.553806,153.502497
25,Council Office,A facility where a Local Government’s main council operations are regularly performed,Council Office,25,Cabonne Council,Operational,Cabonne (A),101 Bank Street,Molong,New South Wales,4,20141209,,-33.091687,148.86743
26,Council Office,A facility where a Local Government’s main council operations are regularly performed,Council Office,26,Camden Council,Operational,Camden (A),37 John Street,Camden,New South Wales,5,20141209,,-34.0538589999999,150.695043
27,Council Office,A facility where a Local Government’s main council operations are regularly performed,Council Office,27,Campbelltown City Council,Operational,Campbelltown (C),91 Queen Street,Campbelltown,New South Wales,5,20141209,,-34.06371,150.81583
28,Council Office,A facility where a Local Government’s main council operations are regularly performed,Council Office,28,City of Canada Bay Council,Operational,Canada Bay (A),1A Marlborough Street,Drummoyne,New South Wales,5,20141209,,-33.8515619999999,151.152869
29,Council Office,A facility where a Local Government’s main council operations are regularly performed,Council Office,29,Canterbury City Council,Operational,Canterbury (C),137 Beamish Street,Campsie,New South Wales,5,20141209,,-33.907742,151.103534
30,Council Office,A facility where a Local Government’s main council operations are regularly performed,Council Office,30,Carrathool Shire Council - Goolgowi Office,Operational,Carrathool (A),9-11 Cobram Street,Goolgowi,New South Wales,4,20141209,,-33.9815599999999,145.709064
31,Council Office,A facility where a Local Government’s main council operations are regularly performed,Council Office,31,Carrathool Shire Council - Hillston District Office,Operational,Carrathool (A),139-145 High Street,Hillston,New South Wales,3,20141209,,-33.484236,145.533059
32,Council Office,A facility where a Local Government’s main council operations are regularly performed,Council Office,32,Central Darling Shire Council,Operational,Central Darling (A),21 Reid Street,Wilcannia,New South Wales,3,20141209,,-31.557787,143.38013
33,Council Office,A facility where a Local Government’s main council operations are regularly performed,Council Office,33,Cessnock City Council,Operational,Cessnock (C),62-78 Vincent Street,Cessnock,New South Wales,3,20141209,,-32.8351779999999,151.356582
34,Council Office,A facility where a Local Government’s main council operations are regularly performed,Council Office,34,Clarence Valley Council,Operational,Clarence Valley (A),2 Prince Street,Grafton,New South Wales,5,20141209,,-29.692621,152.932537
35,Council Office,A facility where a Local Government’s main council operations are regularly performed,Council Office,35,Cobar Shire Council,Operational,Cobar (A),36 Linsley Street,Cobar,New South Wales,5,20141209,,-31.499196,145.838656
36,Council Office,A facility where a Local Government’s main council operations are regularly performed,Council Office,36,Coffs Harbour City Council,Operational,Coffs Harbour (C),2 Castle Street,Coffs Harbour,New South Wales,5,20141209,,-30.2953249999999,153.117494
37,Council Office,A facility where a Local Government’s main council operations are regularly performed,Council Office,37,Conargo Shire Council,Operational,Conargo (A),122 End Street,Deniliquin,New South Wales,5,20150901,,-35.5336956629999,144.965961037
38,Council Office,A facility where a Local Government’s main council operations are regularly performed,Council Office,38,Coolamon Shire Council,Operational,Coolamon (A),55 Cowabbie Street,Coolamon,New South Wales,4,20141209,,-34.8190309999999,147.202223
39,Council Office,A facility where a Local Government’s main council operations are regularly performed,Council Office,39,Cooma-Monaro Shire Council,Operational,Cooma-Monaro (A),81 Commissioner Street,Cooma,New South Wales,5,20141209,,-36.235378,149.127336
40,Council Office,A facility where a Local Government’s main council operations are regularly performed,Council Office,40,Coonamble Shire Council Council,Operational,Coonamble (A),80 Castlereagh Street,Coonamble,New South Wales,5,20141209,,-30.95494,148.388448
41,Council Office,A facility where a Local Government’s main council operations are regularly performed,Council Office,41,Cootamundra Shire Council,Operational,Cootamundra (A),81 Wallendoon Street,Cootamundra,New South Wales,5,20141209,,-34.639423,148.025672
42,Council Office,A facility where a Local Government’s main council operations are regularly performed,Council Office,42,Corowa Shire Council,Operational,Corowa Shire (A),100 Edward Street,Corowa,New South Wales,3,20141209,,-36.003194,146.394571
43,Council Office,A facility where a Local Government’s main council operations are regularly performed,Council Office,43,Cowra Council,Operational,Cowra (A),116 Kendal Street,Cowra,New South Wales,5,20141209,,-33.8347269999999,148.693359
44,Council Office,A facility where a Local Government’s main council operations are regularly performed,Council Office,44,Deniliquin Council,Operational,Deniliquin (A),Civic Place,Deniliquin,New South Wales,5,20150901,,-35.531715386,144.964684673
45,Council Office,A facility where a Local Government’s main council operations are regularly performed,Council Office,45,Dubbo City Council,Operational,Dubbo (C),70 Church Street,Dubbo,New South Wales,5,20141209,,-32.247128,148.605549
46,Council Office,A facility where a Local Government’s main council operations are regularly performed,Council Office,46,Dungog Shire Council,Operational,Dungog (A),198 Dowling Street,Dungog,New South Wales,5,20141209,,-32.401583,151.757388
47,Council Office,A facility where a Local Government’s main council operations are regularly performed,Council Office,47,Eurobodalla Shire Council,Operational,Eurobodalla (A),Vulcan Street,Moruya,New South Wales,5,20141209,,-35.912886,150.079895
48,Council Office,A facility where a Local Government’s main council operations are regularly performed,Council Office,48,Fairfield City Council,Operational,Fairfield (C),86 Avoca Road,Wakeley,New South Wales,5,20141209,,-33.878728,150.914997
49,Council Office,A facility where a Local Government’s main council operations are regularly performed,Council Office,49,Forbes Shire Council,Operational,Forbes (A),2 Court Street,Forbes,New South Wales,3,20141209,,-33.3856039999999,148.008059
50,Council Office,A facility where a Local Government’s main council operations are regularly performed,Council Office,50,Gilgandra Council,Operational,Gilgandra (A),Warren Road,Gilgandra,New South Wales,5,20150206,,-31.7117479999999,148.661784
51,Council Office,A facility where a Local Government’s main council operations are regularly performed,Council Office,51,Glen Innes Severn Council,Operational,Glen Innes Severn (A),136 Church Street,Glen Innes,New South Wales,3,20141209,,-29.739975,151.737309
52,Council Office,A facility where a Local Government’s main council operations are regularly performed,Council Office,52,Gloucester Shire Council,Operational,Gloucester (A),89 King Street,Gloucester,New South Wales,5,20141209,,-32.009578,151.965505
53,Council Office,A facility where a Local Government’s main council operations are regularly performed,Council Office,53,Gosford City Council,Operational,Gosford (C),49 Mann Street,Gosford,New South Wales,4,20141112,,-33.428442,151.342214
54,Council Office,A facility where a Local Government’s main council operations are regularly performed,Council Office,54,Goulburn Mulwaree Council,Operational,Goulburn Mulwaree (A),184-194 Bourke Street,Goulburn,New South Wales,3,20141112,,-34.7517319999999,149.71738
55,Council Office,A facility where a Local Government’s main council operations are regularly performed,Council Office,55,Great Lakes Council,Operational,Great Lakes (A),Breese Parade,Forster,New South Wales,3,20141112,,-32.200822,152.52286
56,Council Office,A facility where a Local Government’s main council operations are regularly performed,Council Office,56,Greater Hume Shire Council - Culcairn Office,Operational,Greater Hume Shire (A),40 Balfour Street,Culcairn,New South Wales,3,20141112,,-35.6675119999999,147.036238
57,Council Office,A facility where a Local Government’s main council operations are regularly performed,Council Office,57,Greater Hume Shire Council - Holbrook Office,Operational,Greater Hume Shire (A),39 Young Street,Holbrook,New South Wales,4,20141112,,-35.724544,147.31225
58,Council Office,A facility where a Local Government’s main council operations are regularly performed,Council Office,58,Greater Taree City Council,Operational,Greater Taree (C),2 Pulteney Street,Taree,New South Wales,4,20141112,,-31.914974,152.459958
59,Council Office,A facility where a Local Government’s main council operations are regularly performed,Council Office,59,Griffith City Council,Operational,Griffith (C),1 Benerembah Street,Griffith,New South Wales,3,20141112,,-34.286328,146.036796
60,Council Office,A facility where a Local Government’s main council operations are regularly performed,Council Office,60,Gundagai Shire Council,Operational,Gundagai (A),255 Sheridan Street,Gundagai,New South Wales,3,20141112,,-35.062101,148.101584
61,Council Office,A facility where a Local Government’s main council operations are regularly performed,Council Office,61,Gunnedah Shire Council,Operational,Gunnedah (A),63 Elgin Street,Gunnedah,New South Wales,4,20141112,,-30.9782789999999,150.256107
62,Council Office,A facility where a Local Government’s main council operations are regularly performed,Council Office,62,Guyra Shire Council,Operational,Guyra (A),158 Bradley Street,Guyra,New South Wales,4,20141112,,-30.221576,151.67117
63,Council Office,A facility where a Local Government’s main council operations are regularly performed,Council Office,63,Gwydir Shire Council - Bingara Office,Operational,Gwydir (A),33 Maitland Street,Bingara,New South Wales,4,20141112,,-29.8679959999999,150.572256
64,Council Office,A facility where a Local Government’s main council operations are regularly performed,Council Office,64,Gwydir Shire Council - Warialda Office,Operational,Gwydir (A),52 Hope Street,Warialda,New South Wales,3,20141112,,-29.540902,150.5753
65,Council Office,A facility where a Local Government’s main council operations are regularly performed,Council Office,65,Harden Shire Council,Operational,Harden (A),3 East Street,Harden,New South Wales,4,20141112,,-34.5528219999999,148.367854
66,Council Office,A facility where a Local Government’s main council operations are regularly performed,Council Office,66,Hawkesbury City Council,Operational,Hawkesbury (C),366 George Street,Windsor,New South Wales,4,20141112,,-33.6114479999999,150.815037
67,Council Office,A facility where a Local Government’s main council operations are regularly performed,Council Office,67,Hay Shire Council,Operational,Hay (A),134 Lachlan Street,Hay,New South Wales,4,20141112,,-34.5090559999999,144.843151
68,Council Office,A facility where a Local Government’s main council operations are regularly performed,Council Office,68,The Hills Shire Council,Operational,The Hills Shire (A),3 Columbia Court,Baulkham Hills,New South Wales,4,20141112,,-33.730542,150.971229
69,Council Office,A facility where a Local Government’s main council operations are regularly performed,Council Office,69,Holroyd City Council,Operational,Holroyd (C),16 Memorial Avenue,Merrylands,New South Wales,4,20141112,,-33.837792,150.989058
70,Council Office,A facility where a Local Government’s main council operations are regularly performed,Council Office,70,Hornsby Shire Council,Operational,Hornsby (A),296 Peats Ferry Road,Hornsby,New South Wales,4,20141112,,-33.7003779999999,151.097484
71,Council Office,A facility where a Local Government’s main council operations are regularly performed,Council Office,71,Hunters Hill Council,Operational,Hunters Hill (A),22 Alexandra Street,Hunters Hill,New South Wales,4,20141112,,-33.8344739999999,151.152978
72,Council Office,A facility where a Local Government’s main council operations are regularly performed,Council Office,72,Hurstville City Council,Operational,Hurstville (C),24 MacMahon Street,Hurstville,New South Wales,4,20141112,,-33.965024,151.101866
73,Council Office,A facility where a Local Government’s main council operations are regularly performed,Council Office,73,Inverell Shire Council,Operational,Inverell (A),144 Otho Street,Inverell,New South Wales,4,20141212,,-29.776672,151.114277
74,Council Office,A facility where a Local Government’s main council operations are regularly performed,Council Office,74,Jerilderie Shire Council,Operational,Jerilderie (A),35 Jerilderie Street,Jerilderie,New South Wales,4,20141212,,-35.355308,145.725548
75,Council Office,A facility where a Local Government’s main council operations are regularly performed,Council Office,75,Junee Shire Council,Operational,Junee (A),Belmore Street,Junee,New South Wales,4,20141212,,-34.8720279999999,147.585965
76,Council Office,A facility where a Local Government’s main council operations are regularly performed,Council Office,76,Kempsey Shire Council,Operational,Kempsey (A),22 Tozer Street,West Kempsey,New South Wales,4,20141212,,-31.0797889999999,152.828332
77,Council Office,A facility where a Local Government’s main council operations are regularly performed,Council Office,77,Kiama Municipal Council,Operational,Kiama (A),11 Manning Street,Kiama,New South Wales,4,20141212,,-34.672107,150.85568
78,Council Office,A facility where a Local Government’s main council operations are regularly performed,Council Office,78,Kogarah City Council,Operational,Kogarah (C),2 Belgrave Street,Kogarah,New South Wales,4,20141212,,-33.9640439999999,151.133211
79,Council Office,A facility where a Local Government’s main council operations are regularly performed,Council Office,79,Ku-ring-gai Council,Operational,Ku-ring-gai (A),818 Pacific Highway,Gordon,New South Wales,4,20141212,,-33.7542,151.151669
80,Council Office,A facility where a Local Government’s main council operations are regularly performed,Council Office,80,Kyogle Shire Council,Operational,Kyogle (A),1 Stratheden Street,Kyogle,New South Wales,4,20141212,,-28.622271,153.002885
81,Council Office,A facility where a Local Government’s main council operations are regularly performed,Council Office,81,Lachlan Shire Council,Operational,Lachlan (A),58-64 Molong Street,Condobolin,New South Wales,4,20141212,,-33.084919,147.152226
82,Council Office,A facility where a Local Government’s main council operations are regularly performed,Council Office,82,Lake Macquarie City Council,Operational,Lake Macquarie (C),126-138 Main Road,Speers Point,New South Wales,4,20141212,,-32.9599679999999,151.623663
83,Council Office,A facility where a Local Government’s main council operations are regularly performed,Council Office,83,Lane Cove Council,Operational,Lane Cove (A),48 Longueville Road,Lane Cove,New South Wales,3,20141212,,-33.8129719999999,151.170853
84,Council Office,A facility where a Local Government’s main council operations are regularly performed,Council Office,84,Leeton Shire Council,Operational,Leeton (A),23 Chelmsford Place,Leeton,New South Wales,4,20141212,,-34.5507009999999,146.406529
85,Council Office,A facility where a Local Government’s main council operations are regularly performed,Council Office,85,Leichhardt Municipal Council,Operational,Leichhardt (A),7-15 Wetherill Street,Leichhardt,New South Wales,4,20141212,,-33.882945,151.158021
86,Council Office,A facility where a Local Government’s main council operations are regularly performed,Council Office,86,Lismore City Council,Operational,Lismore (C),43 Oliver Avenue,Goonellabah,New South Wales,4,20141212,,-28.824227,153.327899
87,Council Office,A facility where a Local Government’s main council operations are regularly performed,Council Office,87,Lithgow City Council,Operational,Lithgow (C),180 Mort Street,Lithgow,New South Wales,4,20141212,,-33.481355,150.159574
88,Council Office,A facility where a Local Government’s main council operations are regularly performed,Council Office,88,Liverpool City Council,Operational,Liverpool (C),33 Moore Street,Liverpool,New South Wales,1,20141212,,-33.9224599999999,150.925395
89,Council Office,A facility where a Local Government’s main council operations are regularly performed,Council Office,89,Liverpool Plains Shire Council,Operational,Liverpool Plains (A),60 Station Street,Quirindi,New South Wales,4,20141212,,-31.5037809999999,150.680583
90,Council Office,A facility where a Local Government’s main council operations are regularly performed,Council Office,90,Lockhart Shire Council,Operational,Lockhart (A),65 Green Street,Lockhart,New South Wales,3,20141212,,-35.2210909999999,146.717918
91,Council Office,A facility where a Local Government’s main council operations are regularly performed,Council Office,91,Maitland City Council,Operational,Maitland (C),285-287 High Street,Maitland,New South Wales,3,20141212,,-32.737141,151.560317
92,Council Office,A facility where a Local Government’s main council operations are regularly performed,Council Office,92,Manly Council,Operational,Manly (A),1 Belgrave Street,Manly,New South Wales,4,20141212,,-33.798288,151.285003
93,Council Office,A facility where a Local Government’s main council operations are regularly performed,Council Office,93,Marrickville Council,Operational,Marrickville (A),2-14 Fisher Street,Petersham,New South Wales,4,20141212,,-33.894943,151.156458
94,Council Office,A facility where a Local Government’s main council operations are regularly performed,Council Office,94,Mid Western Regional Council - Mudgee Office,Operational,Mid-Western Regional (A),86 Market Street,Mudgee,New South Wales,4,20141212,,-32.589891,149.584413
95,Council Office,A facility where a Local Government’s main council operations are regularly performed,Council Office,95,Mid Western Regional Council - Gulong Office,Operational,Mid-Western Regional (A),109 Herbert Street,Gulong,New South Wales,2,20141212,,-32.364204,149.533523
96,Council Office,A facility where a Local Government’s main council operations are regularly performed,Council Office,96,Mid Western Regional Council - Rylstone Office,Operational,Mid-Western Regional (A),77 Louee Street,Rylstone,New South Wales,3,20141212,,-32.797839,149.97043
97,Council Office,A facility where a Local Government’s main council operations are regularly performed,Council Office,97,Moree Plains Shire Council - Moree Office,Operational,Moree Plains (A),Level 2  30 Heber Street,Moree,New South Wales,4,20141212,,-29.4633509999999,149.842064
98,Council Office,A facility where a Local Government’s main council operations are regularly performed,Council Office,98,Moree Plains Shire Council - Boggabilla Office,Operational,Moree Plains (A),134 Merriwa Street,Boggabilla,New South Wales,1,20141212,,-28.601511,150.35955
99,Council Office,A facility where a Local Government’s main council operations are regularly performed,Council Office,99,Moree Plains Shire Council - Mungindi Office,Operational,Moree Plains (A),153 St George Street,Mungindi,New South Wales,3,20141212,,-28.976219,148.9886
100,Council Office,A facility where a Local Government’s main council operations are regularly performed,Council Office,100,Mosman Council,Operational,Mosman (A),Mosman Square,Spit Junction,New South Wales,4,20141212,,-33.825194,151.241357
101,Council Office,A facility where a Local Government’s main council operations are regularly performed,Council Office,101,Murray Shire Council - Mathoura Office,Operational,Murray (A),21-25 Conargo Street,Mathoura,New South Wales,4,20141212,,-35.813072,144.897049
102,Council Office,A facility where a Local Government’s main council operations are regularly performed,Council Office,102,Murray Shire Council - Moama Office,Operational,Murray (A),6 Meninya Street,Moama,New South Wales,4,20141212,,-36.114229,144.756184
103,Council Office,A facility where a Local Government’s main council operations are regularly performed,Council Office,103,Murrumbidgee Shire Council - Darlington Point Office,Operational,Murrumbidgee (A),21 Carrington Street,Darlington Point,New South Wales,4,20141212,,-34.5687569999999,145.998953
104,Council Office,A facility where a Local Government’s main council operations are regularly performed,Council Office,104,Murrumbidgee Shire Council - Coleambally Office,Operational,Murrumbidgee (A),39 Brolga Place,Coleambally,New South Wales,2,20141212,,-34.806865,145.880384
105,Council Office,A facility where a Local Government’s main council operations are regularly performed,Council Office,105,Muswellbrook Shire Council,Operational,Muswellbrook (A),157 New England Highway,Muswellbrook,New South Wales,4,20141212,,-32.282886,150.903855
106,Council Office,A facility where a Local Government’s main council operations are regularly performed,Council Office,106,Nambucca Shire Council,Operational,Nambucca (A),44 Princess Street,Macksville,New South Wales,4,20141212,,-30.7106919999999,152.918272
107,Council Office,A facility where a Local Government’s main council operations are regularly performed,Council Office,107,Narrabri Shire Council,Operational,Narrabri (A),46-48 Maitland Street,Narrabri,New South Wales,4,20141212,,-30.330327,149.786323
108,Council Office,A facility where a Local Government’s main council operations are regularly performed,Council Office,108,Narrandera Shire Council,Operational,Narrandera (A),141 East Street,Narrandera,New South Wales,4,20141212,,-34.74751,146.55323
109,Council Office,A facility where a Local Government’s main council operations are regularly performed,Council Office,109,Narromine Shire Council,Operational,Narromine (A),124 Dandaloo Street,Narromine,New South Wales,4,20141212,,-32.235014,148.238501
110,Council Office,A facility where a Local Government’s main council operations are regularly performed,Council Office,110,Newcastle City Council,Operational,Newcastle (C),282 King Street,Newcastle,New South Wales,4,20141212,,-32.927714,151.772892
111,Council Office,A facility where a Local Government’s main council operations are regularly performed,Council Office,111,North Sydney Council,Operational,North Sydney (A),200 Miller Street,North Sydney,New South Wales,4,20141212,,-33.834437,151.207573
112,Council Office,A facility where a Local Government’s main council operations are regularly performed,Council Office,112,Oberon Council,Operational,Oberon (A),137-139 Oberon Street,Oberon,New South Wales,4,20141212,,-33.7038219999999,149.857536
113,Council Office,A facility where a Local Government’s main council operations are regularly performed,Council Office,113,Orange City Council,Operational,Orange (C),135-137 Byng Street,Orange,New South Wales,4,20141212,,-33.281536,149.101814
114,Council Office,A facility where a Local Government’s main council operations are regularly performed,Council Office,114,Palerang Council,Operational,Palerang (A),10 Majara Street,Bungendore,New South Wales,5,20141209,,-35.2540099999999,149.446344
115,Council Office,A facility where a Local Government’s main council operations are regularly performed,Council Office,115,Parkes Shire Council,Operational,Parkes (A),2 Cecile Street,Parkes,New South Wales,4,20141212,,-33.1389609999999,148.172687
116,Council Office,A facility where a Local Government’s main council operations are regularly performed,Council Office,116,Parramatta City Council,Operational,Parramatta (C),30 Darcy Street,Parramatta,New South Wales,4,20141212,,-33.8168939999999,151.004835
117,Council Office,A facility where a Local Government’s main council operations are regularly performed,Council Office,117,Penrith City Council,Operational,Penrith (C),601 High Street,Penrith,New South Wales,4,20141212,,-33.750304,150.689132
118,Council Office,A facility where a Local Government’s main council operations are regularly performed,Council Office,118,Boondah Operations Centre,Operational,Pittwater (A),1 Boondah Road,Warriewood,New South Wales,2,20141212,,-33.694407,151.300346
119,Council Office,A facility where a Local Government’s main council operations are regularly performed,Council Office,119,Port Macquarie-Hastings Council - Port Macquarie Office,Operational,Port Macquarie - Hastings (A),17 Burrawan Street,Port Macquarie,New South Wales,4,20141212,,-31.4345979999999,152.916932
120,Council Office,A facility where a Local Government’s main council operations are regularly performed,Council Office,120,Port Macquarie-Hastings Council - Laurieton Office,Operational,Port Macquarie - Hastings (A),9 Laurie Street,Laurieton,New South Wales,2,20141212,,-31.6519949999999,152.795784
121,Council Office,A facility where a Local Government’s main council operations are regularly performed,Council Office,121,Port Macquarie-Hastings Council - Wauchope Office,Operational,Port Macquarie - Hastings (A),49 High Street,Wauchope,New South Wales,2,20141212,,-31.457215,152.731382
122,Council Office,A facility where a Local Government’s main council operations are regularly performed,Council Office,122,Port Stephens Council,Operational,Port Stephens (A),116 Adelaide Street,Raymond Terrace,New South Wales,4,20141212,,-32.7629669999999,151.745423
123,Council Office,A facility where a Local Government’s main council operations are regularly performed,Council Office,123,Queanbeyan City Council,Operational,Queanbeyan (C),257 Crawford Street,Queanbeyan,New South Wales,5,20141210,,-35.354569,149.234927
124,Council Office,A facility where a Local Government’s main council operations are regularly performed,Council Office,124,Randwick City Council,Operational,Randwick (C),30 Frances Street,Randwick,New South Wales,5,20141210,,-33.91093,151.242486
125,Council Office,A facility where a Local Government’s main council operations are regularly performed,Council Office,125,Richmond Valley Council,Operational,Richmond Valley (A),Graham Place,Casino,New South Wales,5,20141210,,-28.865924,153.04753
126,Council Office,A facility where a Local Government’s main council operations are regularly performed,Council Office,126,Rockdale City Council,Operational,Rockdale (C),2 Bryant Street,Rockdale,New South Wales,5,20141210,,-33.950656,151.139684
127,Council Office,A facility where a Local Government’s main council operations are regularly performed,Council Office,127,City of Ryde Council,Operational,Ryde (C),1 Devlin Street,Ryde,New South Wales,4,20141210,,-33.8124539999999,151.104739
128,Council Office,A facility where a Local Government’s main council operations are regularly performed,Council Office,128,Shellharbour City Council,Operational,Shellharbour (C),Lamerton Crescent,Shellharbour City,New South Wales,3,20141210,,-34.564287,150.839169
129,Council Office,A facility where a Local Government’s main council operations are regularly performed,Council Office,129,Shoalhaven City Council,Operational,Shoalhaven (C),36 Bridge Road,Nowra,New South Wales,4,20141210,,-34.8690329999999,150.602851
130,Council Office,A facility where a Local Government’s main council operations are regularly performed,Council Office,130,Singleton Council,Operational,Singleton (A),Corner Queen Street and Civic Avenue,Singleton,New South Wales,5,20141209,,-32.558597,151.176266
131,Council Office,A facility where a Local Government’s main council operations are regularly performed,Council Office,131,Snowy River Shire Council  - Berridale Office,Operational,Snowy River (A),2 Myack Street,Berridale,New South Wales,5,20141210,,-36.3661739999999,148.827474
132,Council Office,A facility where a Local Government’s main council operations are regularly performed,Council Office,132,Snowy River Shire Council - Jindabyne Office,Operational,Snowy River (A),"Shop 3, 1 Gippsland Street",Jindabyne,New South Wales,5,20141210,,-36.415591666,148.621284148
133,Council Office,A facility where a Local Government’s main council operations are regularly performed,Council Office,133,Strathfield Council,Operational,Strathfield (A),65 Homebush Road,Strathfield,New South Wales,5,20141210,,-33.8748929999999,151.086358
134,Council Office,A facility where a Local Government’s main council operations are regularly performed,Council Office,134,Sutherland Shire Council,Operational,Sutherland Shire (A),4 Eton Street,Sutherland,New South Wales,5,20141210,,-34.0304889999999,151.059721
135,Council Office,A facility where a Local Government’s main council operations are regularly performed,Council Office,135,City of Sydney Council,Operational,Sydney (C),Level 2  456 Kent Street,Sydney,New South Wales,5,20141210,,-33.8730899999999,151.20539
136,Council Office,A facility where a Local Government’s main council operations are regularly performed,Council Office,136,Tamworth Regional Council,Operational,Tamworth Regional (A),437 Peel Street,Tamworth,New South Wales,5,20141210,,-31.092836,150.931062
137,Council Office,A facility where a Local Government’s main council operations are regularly performed,Council Office,137,Temora Shire Council,Operational,Temora (A),105 Loftus Street,Temora,New South Wales,5,20141210,,-34.4463959999999,147.534705
138,Council Office,A facility where a Local Government’s main council operations are regularly performed,Council Office,138,Tenterfield Shire Council,Operational,Tenterfield (A),247 Rouse Street,Tenterfield,New South Wales,3,20141210,,-29.053754,152.016937
139,Council Office,A facility where a Local Government’s main council operations are regularly performed,Council Office,139,Tumbarumba Shire Council,Operational,Tumbarumba (A),Corner Bridge Street and Winton Street,Tumbarumba,New South Wales,5,20141210,,-35.777576,148.011841
140,Council Office,A facility where a Local Government’s main council operations are regularly performed,Council Office,140,Tumut Shire Council,Operational,Tumut Shire (A),76 Capper Street,Tumut,New South Wales,5,20141210,,-35.301363,148.21994
141,Council Office,A facility where a Local Government’s main council operations are regularly performed,Council Office,141,Tweed Shire Council - Murwillumbah Office,Operational,Tweed (A),10-14 Tumbulgum Road,Murwillumbah,New South Wales,3,20141210,,-28.326726,153.401212
142,Council Office,A facility where a Local Government’s main council operations are regularly performed,Council Office,142,Tweed Shire Council - Tweed Heads Office,Operational,Tweed (A),Brett Street,Tweed Heads,New South Wales,4,20141210,,-28.177611,153.542584
143,Council Office,A facility where a Local Government’s main council operations are regularly performed,Council Office,143,Upper Hunter Shire Council - Scone Office,Operational,Upper Hunter Shire (A),135 Liverpool Street,Scone,New South Wales,5,20141209,,-32.051419,150.869338
144,Council Office,A facility where a Local Government’s main council operations are regularly performed,Council Office,144,Upper Hunter Shire Council - Merriwa Office,Operational,Upper Hunter Shire (A),34-40 Vennacher Street,Merriwa,New South Wales,5,20141209,,-32.1397699999999,150.355387
145,Council Office,A facility where a Local Government’s main council operations are regularly performed,Council Office,145,Upper Hunter Shire Council - Murrurundi Office,Operational,Upper Hunter Shire (A),47 Mayne Street,Murrurundi,New South Wales,5,20141209,,-31.7651319999999,150.839173
146,Council Office,A facility where a Local Government’s main council operations are regularly performed,Council Office,146,Upper Lachlan Shire Council,Operational,Upper Lachlan Shire (A),44 Spring Street,Crookwell,New South Wales,3,20141209,,-34.457751,149.47122
147,Council Office,A facility where a Local Government’s main council operations are regularly performed,Council Office,147,Uralla Shire Council,Operational,Uralla (A),32 Salisbury Street,Uralla,New South Wales,4,20141209,,-30.6429049999999,151.499312
148,Council Office,A facility where a Local Government’s main council operations are regularly performed,Council Office,148,Urana Shire Council,Operational,Urana (A),30-32 William Street,Urana,New South Wales,5,20141209,,-35.331067,146.268308
149,Council Office,A facility where a Local Government’s main council operations are regularly performed,Council Office,149,Wagga Wagga City Council,Operational,Wagga Wagga (C),Corner Baylis Street and Morrow Street,Wagga Wagga,New South Wales,5,20141209,,-35.109636,147.370801
150,Council Office,A facility where a Local Government’s main council operations are regularly performed,Council Office,150,Wakool Shire Council,Operational,Wakool (A),15 Murray Street,Barham,New South Wales,4,20141209,,-35.6301759999999,144.126619
151,Council Office,A facility where a Local Government’s main council operations are regularly performed,Council Office,151,Walcha Shire Council,Operational,Walcha (A),2 Hamilton Street,Walcha,New South Wales,5,20141209,,-30.983574,151.593298
152,Council Office,A facility where a Local Government’s main council operations are regularly performed,Council Office,152,Walgett Shire Council,Operational,Walgett (A),77 Fox Street,Walgett,New South Wales,5,20141209,,-30.0233309999999,148.116956
153,Council Office,A facility where a Local Government’s main council operations are regularly performed,Council Office,153,Warren Shire Council,Operational,Warren (A),115 Dubbo Street,Warren,New South Wales,3,20141210,,-31.7006499999999,147.836607
154,Council Office,A facility where a Local Government’s main council operations are regularly performed,Council Office,154,Warringah Council,Operational,Warringah (A),725 Pittwater Road,Dee Why,New South Wales,5,20141210,,-33.75127,151.286979
155,Council Office,A facility where a Local Government’s main council operations are regularly performed,Council Office,155,Warrumbungle Shire Council,Operational,Warrumbungle Shire (A),14-22 John Street,Coonabarabran,New South Wales,5,20141210,,-31.275094,149.277619
156,Council Office,A facility where a Local Government’s main council operations are regularly performed,Council Office,156,Waverley Council,Operational,Waverley (A),55 Spring Street,Bondi Junction,New South Wales,3,20141210,,-33.8926769999999,151.247828
157,Council Office,A facility where a Local Government’s main council operations are regularly performed,Council Office,157,Weddin Shire Council,Operational,Weddin (A),Corner Camp Street and Weddin Street,Grenfell,New South Wales,5,20141210,,-33.895394,148.162336
158,Council Office,A facility where a Local Government’s main council operations are regularly performed,Council Office,158,Wellington Council,Operational,Wellington (A),Corner Nanima Crescent and Warne Street,Wellington,New South Wales,5,20141210,,-32.5514059999999,148.940555
159,Council Office,A facility where a Local Government’s main council operations are regularly performed,Council Office,159,Wentworth Shire Council,Operational,Wentworth (A),26-28 Adelaide Street,Wentworth,New South Wales,5,20141210,,-34.108643,141.916877
160,Council Office,A facility where a Local Government’s main council operations are regularly performed,Council Office,160,Willoughby City Council,Operational,Willoughby (C),31 Victor Street,Chatswood,New South Wales,5,20141210,,-33.79754,151.182394
161,Council Office,A facility where a Local Government’s main council operations are regularly performed,Council Office,161,Wingecarribee Shire Council,Operational,Wingecarribee (A),"Civic Centre, Elizabeth Street",Moss Vale,New South Wales,5,20141210,,-34.5504339999999,150.373096
162,Council Office,A facility where a Local Government’s main council operations are regularly performed,Council Office,162,Wollondilly Shire Council,Operational,Wollondilly (A),62-64 Menangle Street,Picton,New South Wales,5,20141210,,-34.170065,150.612844
163,Council Office,A facility where a Local Government’s main council operations are regularly performed,Council Office,163,Wollongong City Council,Operational,Wollongong (C),41 Burelli Street,Wollongong,New South Wales,5,20141210,,-34.427162,150.898766
164,Council Office,A facility where a Local Government’s main council operations are regularly performed,Council Office,164,Woollahra Municipal Council,Operational,Woollahra (A),536 New South Head Road,Double Bay,New South Wales,5,20141210,,-33.872671,151.247664
165,Council Office,A facility where a Local Government’s main council operations are regularly performed,Council Office,165,Wyong Shire Council,Operational,Wyong (A),2 Hely Street,Wyong,New South Wales,5,20141210,,-33.282813,151.42381
166,Council Office,A facility where a Local Government’s main council operations are regularly performed,Council Office,166,Yass Valley Council,Operational,Yass Valley (A),209 Comur Street,Yass,New South Wales,5,20141210,,-34.844918,148.913421
167,Council Office,A facility where a Local Government’s main council operations are regularly performed,Council Office,167,Young Shire Council,Operational,Young (A),189-205 Boorowa Street,Young,New South Wales,5,20141210,,-34.31244,148.294548
168,Council Office,A facility where a Local Government’s main council operations are regularly performed,Council Office,168,Alice Springs Council,Operational,Alice Springs (T),93 Todd Street,Alice Springs,Northern Territory,4,20140512,,-23.701805,133.882158
169,Council Office,A facility where a Local Government’s main council operations are regularly performed,Council Office,169,Barkly Regional Council,Operational,Barkly (R),41 Peko Road,Tennant Creek,Northern Territory,5,20141213,,-19.646419,134.196266
170,Council Office,A facility where a Local Government’s main council operations are regularly performed,Council Office,170,West Arnhem Regional Council - Darwin,Operational,Belyuen (S),Terminal One Building  396 Stuart Highway,Winnellie,Northern Territory,4,20141213,,-12.425789,130.872048
171,Council Office,A facility where a Local Government’s main council operations are regularly performed,Council Office,171,Central Desert Shire Council - Alice Springs,Operational,Central Desert (R),1 Bagot Street,Gillen,Northern Territory,4,20141213,,-23.707079,133.879295
172,Council Office,A facility where a Local Government’s main council operations are regularly performed,Council Office,172,Palmerston City Council,Operational,Palmerston (C),2 Chung Wah Terrace,Palmerston,Northern Territory,2,20141213,,-12.478447,130.982118
173,Council Office,A facility where a Local Government’s main council operations are regularly performed,Council Office,173,Coomalie Community Government Council,Operational,Coomalie (S),141 Cameron Road,Batchelor,Northern Territory,2,20141213,,-13.051932,131.034305
174,Council Office,A facility where a Local Government’s main council operations are regularly performed,Council Office,174,Darwin City Council,Operational,Darwin (C),17 Harry Chan Avenue,Darwin,Northern Territory,3,20141213,,-12.464354,130.845574
175,Council Office,A facility where a Local Government’s main council operations are regularly performed,Council Office,175,East Arnhem Regional Council,Operational,East Arnhem (R),Corner Chesterfield Circuit and Franklyn Street,Nhulunbuy,Northern Territory,2,20141213,,-12.1839489999999,136.786419
176,Council Office,A facility where a Local Government’s main council operations are regularly performed,Council Office,176,Katherine Town Council,Operational,Katherine (T),1865 Stuart Highway,Katherine,Northern Territory,1,20141213,,-14.4662099999999,132.263752
177,Council Office,A facility where a Local Government’s main council operations are regularly performed,Council Office,177,Litchfield Council,Operational,Litchfield (M),7 Bees Creek Road,Freds Pass,Northern Territory,2,20141213,,-12.5398989999999,131.056481
178,Council Office,A facility where a Local Government’s main council operations are regularly performed,Council Office,178,MacDonnell Regional Council - Alice Springs,Operational,MacDonnell (R),Corner Bagot Street and South Terrace,Alice Springs,Northern Territory,4,20141213,,-23.707079,133.879295
179,Council Office,A facility where a Local Government’s main council operations are regularly performed,Council Office,179,Roper Gulf Regional Council - Katherine,Operational,Roper Gulf (R),29 Crawford Street,Katherine,Northern Territory,3,20141213,,-14.4767659999999,132.287367
180,Council Office,A facility where a Local Government’s main council operations are regularly performed,Council Office,180,Tiwi Islands Regional Council,Operational,Tiwi Islands (R),116-120 Coonawarra Road,Winnellie,Northern Territory,1,20141213,,-11.7591619999999,130.636243
181,Council Office,A facility where a Local Government’s main council operations are regularly performed,Council Office,181,Victoria Daly Council - Katherine,Operational,Victoria Daly (R),14 Katherine Terrace,Katherine,Northern Territory,2,20141213,,-14.466506,132.264178
182,Council Office,A facility where a Local Government’s main council operations are regularly performed,Council Office,182,Wagait Shire Council,Operational,Wagait (S),142 Wagait Tower Road,Wagait Beach,Northern Territory,3,20141215,,-12.435260533,130.748354261
183,Council Office,A facility where a Local Government’s main council operations are regularly performed,Council Office,183,West Arnhem Regional Council,Operational,West Arnhem (R),13 Tasman Crescent,Jabiru,Northern Territory,4,20141203,,-12.6722329999999,132.832778
184,Council Office,A facility where a Local Government’s main council operations are regularly performed,Council Office,184,Aurukun Shire Council,Operational,Aurukun (S),39 Kang Kang Road,Aurukun,Queensland,3,20141216,,-13.358977,141.728286
185,Council Office,A facility where a Local Government’s main council operations are regularly performed,Council Office,185,Balonne Shire Council,Operational,Balonne (S),Carnarvon Highway,St George,Queensland,5,20141202,,-28.03687,148.580629
186,Council Office,A facility where a Local Government’s main council operations are regularly performed,Council Office,186,Banana Shire Council - Biloela Office,Operational,Banana (S),62 Valentine Plains Road,Biloela,Queensland,3,20141216,,-24.410835,150.520745
187,Council Office,A facility where a Local Government’s main council operations are regularly performed,Council Office,187,Banana Shire Council - Moura Office,Operational,Banana (S),Gillespie Street,Moura,Queensland,1,20141216,,-24.567671,149.975286
188,Council Office,A facility where a Local Government’s main council operations are regularly performed,Council Office,188,Banana Shire Council - Taroom Office,Operational,Banana (S),Yaldwyn Street,Taroom,Queensland,1,20141216,,-25.641714,149.794177
189,Council Office,A facility where a Local Government’s main council operations are regularly performed,Council Office,189,Barcaldine Regional Council,Operational,Barcaldine (R),71 Ash Street,Barcaldine,Queensland,3,20141217,,-23.553935,145.289432
190,Council Office,A facility where a Local Government’s main council operations are regularly performed,Council Office,190,Barcoo Shire Council,Operational,Barcoo (S),6 Perkins Street,Jundah,Queensland,3,20141217,,-24.833432,143.058896
191,Council Office,A facility where a Local Government’s main council operations are regularly performed,Council Office,191,Blackall-Tambo Regional Council,Operational,Blackall-Tambo (R),6 Coronation Drive,Blackall,Queensland,3,20141217,,-24.4225539999999,145.463453
192,Council Office,A facility where a Local Government’s main council operations are regularly performed,Council Office,192,Boulia Shire Council,Operational,Boulia (S),1 Herbert Street,Boulia,Queensland,1,20141217,,-22.909101,139.906617
193,Council Office,A facility where a Local Government’s main council operations are regularly performed,Council Office,193,Brisbane City Council,Operational,Brisbane (C),266 George Street,Brisbane,Queensland,5,20141217,,-27.4706879999999,153.022586
194,Council Office,A facility where a Local Government’s main council operations are regularly performed,Council Office,194,Bulloo Shire Council,Operational,Bulloo (S),53 Dowling Street,Thargomindah,Queensland,1,20141219,,-27.9967809999999,143.82161
195,Council Office,A facility where a Local Government’s main council operations are regularly performed,Council Office,195,Bundaberg Regional Council,Operational,Bundaberg (R),190 Bourbong Street,Bundaberg,Queensland,5,20141219,,-24.866664,152.34791
196,Council Office,A facility where a Local Government’s main council operations are regularly performed,Council Office,196,Burdekin Shire Council,Operational,Burdekin (S),145 Young Street,Ayr,Queensland,5,20141219,,-19.577257,147.4062
197,Council Office,A facility where a Local Government’s main council operations are regularly performed,Council Office,197,Burke Shire Council,Operational,Burke (S),LOT 65 Musgrave Street,Burketown,Queensland,3,20141219,,-17.7412249999999,139.546869
198,Council Office,A facility where a Local Government’s main council operations are regularly performed,Council Office,198,Cairns Regional Council,Operational,Cairns (R),119-145 Spence Street,Cairns,Queensland,5,20141219,,-16.930263,145.77018
199,Council Office,A facility where a Local Government’s main council operations are regularly performed,Council Office,199,Carpentaria Shire Council,Operational,Carpentaria (S),LOT 33 Haig Street,Normanton,Queensland,5,20141219,,-17.6686609999999,141.080115
200,Council Office,A facility where a Local Government’s main council operations are regularly performed,Council Office,200,Cassowary Coast Regional Council - Innisfail Office,Operational,Cassowary Coast (R),70 Rankin Street,Innisfail,Queensland,3,20141219,,-17.5230579999999,146.030154
201,Council Office,A facility where a Local Government’s main council operations are regularly performed,Council Office,201,Cassowary Coast Regional Council - Tully Office,Operational,Cassowary Coast (R),38-40 Bryant Street,Tully,Queensland,5,20141219,,-17.935444,145.923246
202,Council Office,A facility where a Local Government’s main council operations are regularly performed,Council Office,202,Central Highlands Regional Council - Emerald Office,Operational,Central Highlands (R),Corner Egerton Street and Borilla Street,Emerald,Queensland,5,20141219,,-23.525316,148.161439
203,Council Office,A facility where a Local Government’s main council operations are regularly performed,Council Office,203,Central Highlands Regional Council - Blackwater Office,Operational,Central Highlands (R),10 Mackenzie Street,Blackwater,Queensland,3,20141219,,-23.58372,148.879373
204,Council Office,A facility where a Local Government’s main council operations are regularly performed,Council Office,204,Central Highlands Regional Council - Capella Office,Operational,Central Highlands (R),4 Conran Street,Capella,Queensland,3,20141219,,-23.086383,148.023922
205,Council Office,A facility where a Local Government’s main council operations are regularly performed,Council Office,205,Central Highlands Regional Council - Duaringa Office,Operational,Central Highlands (R),12 William Street,Duaringa,Queensland,3,20141219,,-23.717931,149.671146
206,Council Office,A facility where a Local Government’s main council operations are regularly performed,Council Office,206,Central Highlands Regional Council - Springsure Office,Operational,Central Highlands (R),29 Eclipse Street,Springsure,Queensland,3,20141219,,-24.1143259999999,148.088372
207,Council Office,A facility where a Local Government’s main council operations are regularly performed,Council Office,207,Charters Towers Regional Council,Operational,Charters Towers (R),12 Mosman Street,Lissner,Queensland,5,20141219,,-20.072596,146.257941
208,Council Office,A facility where a Local Government’s main council operations are regularly performed,Council Office,208,Cherbourg Aboriginal Shire Council,Operational,Cherbourg (S),22 Barambah Avenue,Cherbourg,Queensland,3,20141219,,-26.2903929999999,151.95604
209,Council Office,A facility where a Local Government’s main council operations are regularly performed,Council Office,209,Cloncurry Shire Council,Operational,Cloncurry (S),19 Scarr Street,Cloncurry,Queensland,5,20141219,,-20.70537,140.508616
210,Council Office,A facility where a Local Government’s main council operations are regularly performed,Council Office,210,Cook Shire Council,Operational,Cook (S),10 Furneaux Street,Cooktown,Queensland,5,20141219,,-15.4696759999999,145.251761
211,Council Office,A facility where a Local Government’s main council operations are regularly performed,Council Office,211,Croydon Shire Council,Operational,Croydon (S),63 Samwell Street,Croydon,Queensland,3,20141219,,-18.203518,142.243739
212,Council Office,A facility where a Local Government’s main council operations are regularly performed,Council Office,212,Diamantina Shire Council,Operational,Diamantina (S),17 Herbert Street,Bedourie,Queensland,2,20150206,,-24.360151,139.4709
213,Council Office,A facility where a Local Government’s main council operations are regularly performed,Council Office,213,Doomadgee Aboriginal Shire Council,Operational,Doomadgee (S),275 Sharpe Street,Doomadgee,Queensland,2,20150206,,-17.9421209999999,138.826007
214,Council Office,A facility where a Local Government’s main council operations are regularly performed,Council Office,214,Douglas Shire Council,Operational,Douglas (S),64-66 Front Street,Mossman,Queensland,3,20150206,,-16.465773,145.373123
215,Council Office,A facility where a Local Government’s main council operations are regularly performed,Council Office,215,Etheridge Shire Council,Operational,Etheridge (S),St. George Street,Georgetown,Queensland,2,20150206,,-18.2896909999999,143.549614
216,Council Office,A facility where a Local Government’s main council operations are regularly performed,Council Office,216,Flinders Shire Council,Operational,Flinders (S),34 Gray Street,Hughenden,Queensland,3,20150206,,-20.842192,144.200719
217,Council Office,A facility where a Local Government’s main council operations are regularly performed,Council Office,217,Fraser Coast Regional Council,Operational,Fraser Coast (R),77 Tavistock Street,Torquay,Queensland,5,20150206,,-25.294385,152.863224
218,Council Office,A facility where a Local Government’s main council operations are regularly performed,Council Office,218,Gladstone Regional Council,Operational,Gladstone (R),101 Goondoon Street,Gladstone,Queensland,5,20150206,,-23.84311,151.255432
219,Council Office,A facility where a Local Government’s main council operations are regularly performed,Council Office,219,Gold Coast City Council,Operational,Gold Coast (C),135 Bundall Road,Bundall,Queensland,5,20150206,,-28.00193,153.415402
220,Council Office,A facility where a Local Government’s main council operations are regularly performed,Council Office,220,Goondiwindi Regional Council,Operational,Goondiwindi (R),82 Marshall Street,Goondiwindi,Queensland,5,20150206,,-28.5470379999999,150.306227
221,Council Office,A facility where a Local Government’s main council operations are regularly performed,Council Office,221,Gympie Regional Council,Operational,Gympie (R),242 Mary Street,Gympie,Queensland,5,20150206,,-26.1886019999999,152.658565
222,Council Office,A facility where a Local Government’s main council operations are regularly performed,Council Office,222,Hinchinbrook Shire Council,Operational,Hinchinbrook (S),25 Lannercost Street,Ingham,Queensland,5,20150206,,-18.650799,146.154232
223,Council Office,A facility where a Local Government’s main council operations are regularly performed,Council Office,223,Hope Vale Aboriginal Shire Council,Operational,Hope Vale (S),Muni Street,Hope Vale,Queensland,3,20150206,,-15.29374,145.109861
224,Council Office,A facility where a Local Government’s main council operations are regularly performed,Council Office,224,Ipswich City Council,Operational,Ipswich (C),143 Brisbane Street,Ipswich,Queensland,5,20150206,,-27.6140149999999,152.758732
225,Council Office,A facility where a Local Government’s main council operations are regularly performed,Council Office,225,Isaac Regional Council - Clermont Office,Operational,Isaac (R),Corner Karmoo Street and Daintree Street,Clermont,Queensland,5,20150206,,-22.825253,147.642181
226,Council Office,A facility where a Local Government’s main council operations are regularly performed,Council Office,226,Isaac Regional Council - Dysart Office,Operational,Isaac (R),Shannon Crescent,Dysart,Queensland,2,20150206,,-22.5882849999999,148.351266
227,Council Office,A facility where a Local Government’s main council operations are regularly performed,Council Office,227,Isaac Regional Council - Glenden Office,Operational,Isaac (R),Ewan Drive,Glenden,Queensland,2,20150206,,-21.358355,148.115127
228,Council Office,A facility where a Local Government’s main council operations are regularly performed,Council Office,228,Isaac Regional Council - Middlemount Office,Operational,Isaac (R),Shopping Centre,Middlemount,Queensland,1,20150206,,-22.809638,148.699344
229,Council Office,A facility where a Local Government’s main council operations are regularly performed,Council Office,229,Isaac Regional Council - Moranbah Office,Operational,Isaac (R),"Grosvenor Complex, Batchelor Parade",Moranbah,Queensland,2,20150206,,-22.000124,148.047899
230,Council Office,A facility where a Local Government’s main council operations are regularly performed,Council Office,230,Isaac Regional Council - Nebo Office,Operational,Isaac (R),10 Reynolds Street,Nebo,Queensland,3,20150206,,-21.6890549999999,148.689296
231,Council Office,A facility where a Local Government’s main council operations are regularly performed,Council Office,231,Isaac Regional Council - St Lawrence Office,Operational,Isaac (R),36 Macartney Street,St Lawrence,Queensland,3,20150206,,-22.345943,149.536409
232,Council Office,A facility where a Local Government’s main council operations are regularly performed,Council Office,232,Kowanyama Aboriginal Shire Council,Operational,Kowanyama (S),,Kowanyama,Queensland,1,20150206,,-15.472478,141.746062
233,Council Office,A facility where a Local Government’s main council operations are regularly performed,Council Office,233,Livingstone Shire Council,Operational,Livingstone (S),25 Normanby Street,Yeppoon,Queensland,5,20150206,,-23.127983,150.746582
234,Council Office,A facility where a Local Government’s main council operations are regularly performed,Council Office,234,Lockhart River Aboriginal Shire Council,Operational,Lockhart River (S),7 Anderson Street,Manunda,Queensland,5,20150206,,-16.9135959999999,145.75413
235,Council Office,A facility where a Local Government’s main council operations are regularly performed,Council Office,235,Lockyer Valley Regional Council,Operational,Lockyer Valley (R),26 Railway Street,Gatton,Queensland,5,20150206,,-27.557445,152.276934
236,Council Office,A facility where a Local Government’s main council operations are regularly performed,Council Office,236,Logan City Council,Operational,Logan (C),150 Wembley Road,Logan Central,Queensland,5,20150206,,-27.642614,153.104037
237,Council Office,A facility where a Local Government’s main council operations are regularly performed,Council Office,237,Longreach Regional Council,Operational,Longreach (R),96A Eagle Street,Longreach,Queensland,4,20150206,,-23.440821,144.250565
238,Council Office,A facility where a Local Government’s main council operations are regularly performed,Council Office,238,Mackay Regional Council,Operational,Mackay (R),73 Gordon Street,Mackay,Queensland,5,20150206,,-21.143456,149.181038
239,Council Office,A facility where a Local Government’s main council operations are regularly performed,Council Office,239,Mapoon Aboriginal Shire Council,Operational,Mapoon (S),Red Beach Road,Mapoon,Queensland,1,20150206,,-12.019823,141.904728
240,Council Office,A facility where a Local Government’s main council operations are regularly performed,Council Office,240,Maranoa Regional Council,Operational,Maranoa (R),Bungil Street,Roma,Queensland,3,20150206,,-26.568981,148.787937
241,Council Office,A facility where a Local Government’s main council operations are regularly performed,Council Office,241,Mareeba Shire Council,Operational,Mareeba (S),65 Rankin Street,Mareeba,Queensland,5,20150206,,-16.9968749999999,145.424736
242,Council Office,A facility where a Local Government’s main council operations are regularly performed,Council Office,242,McKinlay Shire Council,Operational,McKinlay (S),29 Burke Street,Julia Creek,Queensland,4,20150206,,-20.6568579999999,141.745983
243,Council Office,A facility where a Local Government’s main council operations are regularly performed,Council Office,243,Moreton Bay Regional Council,Operational,Moreton Bay (R),2 Hasking Street,Caboolture,Queensland,4,20150206,,-27.0836889999999,152.951518
244,Council Office,A facility where a Local Government’s main council operations are regularly performed,Council Office,244,Mornington Shire Council,Operational,Mornington (S),Mission Road,Gununa,Queensland,1,20150206,,-16.66579,139.181322
245,Council Office,A facility where a Local Government’s main council operations are regularly performed,Council Office,245,Mount Isa City Council,Operational,Mount Isa (C),23 West Street,Mount Isa,Queensland,5,20150206,,-20.725946,139.490077
246,Council Office,A facility where a Local Government’s main council operations are regularly performed,Council Office,246,Murweh Shire Council,Operational,Murweh (S),95-101 Alfred Street,Charleville,Queensland,2,20150206,,-26.40012,146.239253
247,Council Office,A facility where a Local Government’s main council operations are regularly performed,Council Office,247,Napranum Aboriginal Shire Council,Operational,Napranum (S),Moun-Ding Street,Napranum,Queensland,1,20150206,,-12.684542,141.889323
248,Council Office,A facility where a Local Government’s main council operations are regularly performed,Council Office,248,Noosa Shire Council,Operational,Noosa (S),9 Pelican Street,Tewantin,Queensland,5,20150206,,-26.392255,153.040768
249,Council Office,A facility where a Local Government’s main council operations are regularly performed,Council Office,249,North Burnett Regional Council,Operational,North Burnett (R),34-36 Capper Street,Gayndah,Queensland,4,20150206,,-25.625772,151.610333
250,Council Office,A facility where a Local Government’s main council operations are regularly performed,Council Office,250,Northern Peninsula Area Regional Council,Operational,Northern Peninsula Area (R),180 Adidi Street,Bamaga,Queensland,3,20150206,,-10.8875689999999,142.388248
251,Council Office,A facility where a Local Government’s main council operations are regularly performed,Council Office,251,Palm Island Aboriginal Shire Council,Operational,Palm Island (S),1 Main Street,Palm Island,Queensland,3,20150206,,-18.734116,146.577781
252,Council Office,A facility where a Local Government’s main council operations are regularly performed,Council Office,252,Paroo Shire Council,Operational,Paroo (S),49 Stockyard Street,Cunnamulla,Queensland,5,20150206,,-28.070084,145.682096
253,Council Office,A facility where a Local Government’s main council operations are regularly performed,Council Office,253,Pormpuraaw Aboriginal Shire Council,Operational,Pormpuraaw (S),24 Thinraathin Street,Pormpuraaw,Queensland,1,20150206,,-14.8998819999999,141.619235
254,Council Office,A facility where a Local Government’s main council operations are regularly performed,Council Office,254,Quilpie Shire Council,Operational,Quilpie (S),48-50 Brolga Street,Quilpie,Queensland,5,20150206,,-26.6139459999999,144.268136
255,Council Office,A facility where a Local Government’s main council operations are regularly performed,Council Office,255,Redland City Council,Operational,Redland (C),Corner Bloomfield Street and Middle Street,Cleveland,Queensland,5,20150206,,-27.5262289999999,153.266838
256,Council Office,A facility where a Local Government’s main council operations are regularly performed,Council Office,256,Richmond Shire Council,Operational,Richmond (S),50 Goldring Street,Richmond,Queensland,5,20150206,,-20.729168,143.141127
257,Council Office,A facility where a Local Government’s main council operations are regularly performed,Council Office,257,Rockhampton Regional Council,Operational,Rockhampton (R),232 Bolsover Street,Rockhampton,Queensland,5,20150206,,-23.3820259999999,150.513949
258,Council Office,A facility where a Local Government’s main council operations are regularly performed,Council Office,258,Scenic Rim Regional Council,Operational,Scenic Rim (R),82 Brisbane Street,Beaudesert,Queensland,5,20150206,,-27.987254,152.995476
259,Council Office,A facility where a Local Government’s main council operations are regularly performed,Council Office,259,Somerset Regional Council,Operational,Somerset (R),2 Redbank Street,Esk,Queensland,5,20150206,,-27.2407729999999,152.42195
260,Council Office,A facility where a Local Government’s main council operations are regularly performed,Council Office,260,South Burnett Regional Council,Operational,South Burnett (R),41 Glendon Street,Kingaroy,Queensland,5,20150206,,-26.540003,151.837404
261,Council Office,A facility where a Local Government’s main council operations are regularly performed,Council Office,261,Southern Downs Regional Council,Operational,Southern Downs (R),64 Fitzroy Street,Warwick,Queensland,5,20150206,,-28.2145849999999,152.034733
262,Council Office,A facility where a Local Government’s main council operations are regularly performed,Council Office,262,Sunshine Coast Regional Council - Caloundra Office,Operational,Sunshine Coast (R),1 Omrah Avenue,Caloundra,Queensland,5,20150206,,-26.803325,153.130806
263,Council Office,A facility where a Local Government’s main council operations are regularly performed,Council Office,263,Sunshine Coast Regional Council - Maroochy on First Office,Operational,Sunshine Coast (R),10 First Avenue,Maroochydore,Queensland,5,20150206,,-26.654776,153.093035
264,Council Office,A facility where a Local Government’s main council operations are regularly performed,Council Office,264,Sunshine Coast Regional Council - Nambour Office,Operational,Sunshine Coast (R),Corner Currie Street and Bury Street,Nambour,Queensland,5,20150206,,-26.6281549999999,152.958989
265,Council Office,A facility where a Local Government’s main council operations are regularly performed,Council Office,265,Tablelands Regional Council,Operational,Tablelands (R),45 Mabel Street,Atherton,Queensland,5,20150206,,-17.267241,145.476187
266,Council Office,A facility where a Local Government’s main council operations are regularly performed,Council Office,266,Toowoomba Regional Council,Operational,Toowoomba (R),4 Little Street,Toowoomba,Queensland,5,20150206,,-27.5633139999999,151.95191
267,Council Office,A facility where a Local Government’s main council operations are regularly performed,Council Office,267,Torres Shire Council,Operational,Torres (S),68 Douglas Street,Thursday Island,Queensland,3,20150206,,-10.5836689999999,142.219715
268,Council Office,A facility where a Local Government’s main council operations are regularly performed,Council Office,268,Torres Strait Island Regional Council - Cairns Office,Operational,Torres Strait Island (R),111 Grafton Street,Cairns,Queensland,3,20150206,,-16.922806,145.774498
269,Council Office,A facility where a Local Government’s main council operations are regularly performed,Council Office,269,Torres Strait Island Regional Council - Thursday Island Office,Operational,Torres Strait Island (R),46 Victoria Parade,Thursday Island,Queensland,3,20150206,,-10.585163,142.215866
270,Council Office,A facility where a Local Government’s main council operations are regularly performed,Council Office,270,Townsville City Council,Operational,Townsville (C),103 Walker Street,Townsville,Queensland,5,20150206,,-19.258326,146.814668
271,Council Office,A facility where a Local Government’s main council operations are regularly performed,Council Office,271,Western Downs Regional Council,Operational,Western Downs (R),80-86 Heeney Street,Chinchilla,Queensland,3,20150206,,-26.7406129999999,150.624459
272,Council Office,A facility where a Local Government’s main council operations are regularly performed,Council Office,272,Whitsunday Regional Council,Operational,Whitsunday (R),83 Main Street,Proserpine,Queensland,5,20150206,,-20.40171,148.584684
273,Council Office,A facility where a Local Government’s main council operations are regularly performed,Council Office,273,Bowen Shire Council,Operational,Whitsunday (R),67 Herbert Street,Bowen,Queensland,3,20150206,,-20.012422,148.246299
274,Council Office,A facility where a Local Government’s main council operations are regularly performed,Council Office,274,Winton Shire Council,Operational,Winton (S),75 Vindex Street,Winton,Queensland,5,20150206,,-22.3875199999999,143.037715
275,Council Office,A facility where a Local Government’s main council operations are regularly performed,Council Office,275,Woorabinda Aboriginal Shire Council,Operational,Woorabinda (S),112 Munns Drive,Woorabinda,Queensland,1,20150206,,-24.133999,149.45556
276,Council Office,A facility where a Local Government’s main council operations are regularly performed,Council Office,276,Wujal Wujal Aboriginal Shire Council,Operational,Wujal Wujal (S),Hartwig Street,Wujal Wujal,Queensland,2,20150206,,-15.9451569999999,145.318752
277,Council Office,A facility where a Local Government’s main council operations are regularly performed,Council Office,277,Yarrabah Aboriginal Shire Council,Operational,Yarrabah (S),56 Sawmill Road,Yarrabah,Queensland,1,20150206,,-16.90762,145.866578
278,Council Office,A facility where a Local Government’s main council operations are regularly performed,Council Office,278,Adelaide City Council,Operational,Adelaide (C),25 Pirie Street,Adelaide,South Australia,5,20150209,,-34.9259079999999,138.600798
279,Council Office,A facility where a Local Government’s main council operations are regularly performed,Council Office,279,Adelaide Hills Council - Gumeracha Office,Operational,Adelaide Hills (DC),45 Albert Street,Gumeracha,South Australia,3,20150209,,-34.821952,138.885931
280,Council Office,A facility where a Local Government’s main council operations are regularly performed,Council Office,280,Adelaide Hills Council - Stirling Office,Operational,Adelaide Hills (DC),63 Mount Barker Road,Stirling,South Australia,5,20150209,,-35.00553,138.717583
281,Council Office,A facility where a Local Government’s main council operations are regularly performed,Council Office,281,Adelaide Hills Council - Woodside Office,Operational,Adelaide Hills (DC),28 Onkaparinga Valley Road,Woodside,South Australia,5,20150209,,-34.953615,138.87517
282,Council Office,A facility where a Local Government’s main council operations are regularly performed,Council Office,282,Alexandrina Council,Operational,Alexandrina (DC),11 Cadell Street,Goolwa,South Australia,5,20150209,,-35.5019119999999,138.782451
283,Council Office,A facility where a Local Government’s main council operations are regularly performed,Council Office,283,The Barossa Council,Operational,Barossa (DC),43-51 Tanunda Road,Nuriootpa,South Australia,5,20150209,,-34.481488,138.992461
284,Council Office,A facility where a Local Government’s main council operations are regularly performed,Council Office,284,District Council of Barunga West,Operational,Barunga West (DC),11 Bay Street,Port Broughton,South Australia,5,20150209,,-33.600117,137.931882
285,Council Office,A facility where a Local Government’s main council operations are regularly performed,Council Office,285,Berri Barmera Council,Operational,Berri and Barmera (DC),19 Wilson Street,Berri,South Australia,5,20141205,,-34.2856859999999,140.600643
286,Council Office,A facility where a Local Government’s main council operations are regularly performed,Council Office,286,City of Burnside,Operational,Burnside (C),401 Greenhill Road,Tusmore,South Australia,5,20150212,,-34.938389,138.643411
287,Council Office,A facility where a Local Government’s main council operations are regularly performed,Council Office,287,Campbelltown City Council,Operational,Campbelltown (C),172 Montacute Road,Rostrevor,South Australia,5,20150212,,-34.8887779999999,138.677174
288,Council Office,A facility where a Local Government’s main council operations are regularly performed,Council Office,288,District Council of Ceduna,Operational,Ceduna (DC),44 O'Loughlin Terrace,Ceduna,South Australia,5,20150212,,-32.124943,133.672613
289,Council Office,A facility where a Local Government’s main council operations are regularly performed,Council Office,289,City of Charles Sturt,Operational,Charles Sturt (C),72 Woodville Road,Woodville,South Australia,5,20150212,,-34.878659,138.537538
290,Council Office,A facility where a Local Government’s main council operations are regularly performed,Council Office,290,Clare and Gilbert Valleys Council,Operational,Clare and Gilbert Valleys (DC),4 Gleeson Street,Clare,South Australia,5,20150212,,-33.8345689999999,138.612016
291,Council Office,A facility where a Local Government’s main council operations are regularly performed,Council Office,291,District Council of Cleve,Operational,Cleve (DC),10 Main Street,Cleve,South Australia,5,20150212,,-33.701582,136.495612
292,Council Office,A facility where a Local Government’s main council operations are regularly performed,Council Office,292,District Council of Coober Pedy,Operational,Coober Pedy (DC),Hutchison Street,Coober Pedy,South Australia,5,20150212,,-29.014845,134.755666
293,Council Office,A facility where a Local Government’s main council operations are regularly performed,Council Office,293,Coorong District Council,Operational,The Coorong (DC),95-101 Railway Terrace,Tailem Bend,South Australia,3,20150212,,-35.2546149999999,139.454789
294,Council Office,A facility where a Local Government’s main council operations are regularly performed,Council Office,294,District Council of the Copper Coast,Operational,Copper Coast (DC),51 Taylor Street,Kadina,South Australia,5,20150212,,-33.961765,137.714894
295,Council Office,A facility where a Local Government’s main council operations are regularly performed,Council Office,295,District Council of Elliston,Operational,Elliston (DC),21 Beach Terrace,Elliston,South Australia,5,20150212,,-33.647659,134.887339
296,Council Office,A facility where a Local Government’s main council operations are regularly performed,Council Office,296,The Flinders Ranges Council,Operational,Flinders Ranges (DC),1 Seventh Street,Quorn,South Australia,5,20150212,,-32.345767,138.041954
297,Council Office,A facility where a Local Government’s main council operations are regularly performed,Council Office,297,District Council of Franklin Harbour,Operational,Franklin Harbour (DC),6 Main Street,Cowell,South Australia,5,20150212,,-33.6841909999999,136.926258
298,Council Office,A facility where a Local Government’s main council operations are regularly performed,Council Office,298,Gawler Town Council,Operational,Gawler (T),89 Murray Street,Gawler,South Australia,5,20150212,,-34.5994229999999,138.74952
299,Council Office,A facility where a Local Government’s main council operations are regularly performed,Council Office,299,Regional Council of Goyder - Headquarters,Operational,Goyder (DC),1 Market Square,Burra,South Australia,5,20150212,,-33.681746,138.939355
300,Council Office,A facility where a Local Government’s main council operations are regularly performed,Council Office,300,Regional Council of Goyder - Eudunda Office,Operational,Goyder (DC),25 Bruce Street,Eudunda,South Australia,5,20150212,,-34.1708159999999,139.084289
301,Council Office,A facility where a Local Government’s main council operations are regularly performed,Council Office,301,District Council of Grant,Operational,Grant (DC),324 Commercial Street West,Mount Gambier,South Australia,5,20150212,,-37.81931,140.752873
302,Council Office,A facility where a Local Government’s main council operations are regularly performed,Council Office,302,City of Holdfast Bay,Operational,Holdfast Bay (C),24 Jetty Road,Brighton,South Australia,5,20150212,,-35.016806,138.519832
303,Council Office,A facility where a Local Government’s main council operations are regularly performed,Council Office,303,Kangaroo Island Council,Operational,Kangaroo Island (DC),43 Dauncey Street,Kingscote,South Australia,5,20150212,,-35.655966,137.638788
304,Council Office,A facility where a Local Government’s main council operations are regularly performed,Council Office,304,District Council of Karoonda East Murray,Operational,Karoonda East Murray (DC),11 Railway Terrace,Karoonda,South Australia,5,20150212,,-35.094737,139.894984
305,Council Office,A facility where a Local Government’s main council operations are regularly performed,Council Office,305,District Council of Kimba,Operational,Kimba (DC),Cross Street,Kimba,South Australia,5,20150212,,-33.138609,136.418431
306,Council Office,A facility where a Local Government’s main council operations are regularly performed,Council Office,306,Kingston District Council,Operational,Kingston (DC),29 Holland Street,Kingston,South Australia,5,20150212,,-36.830052,139.85312
307,Council Office,A facility where a Local Government’s main council operations are regularly performed,Council Office,307,Wudinna District Council,Operational,Wudinna (DC),11 Burton Terrace,Wudinna,South Australia,5,20150212,,-33.046462,135.460295
308,Council Office,A facility where a Local Government’s main council operations are regularly performed,Council Office,308,Light Regional Council,Operational,Light (RegC),93 Main Street,Kapunda,South Australia,5,20150212,,-34.3424649999999,138.913787
309,Council Office,A facility where a Local Government’s main council operations are regularly performed,Council Office,309,District Council of Lower Eyre Peninsula,Operational,Lower Eyre Peninsula (DC),32 Railway Terrace,Cummins,South Australia,5,20150212,,-34.26382,135.727972
310,Council Office,A facility where a Local Government’s main council operations are regularly performed,Council Office,310,District Council of Loxton Waikerie,Operational,Loxton Waikerie (DC),29 East Terrace,Loxton,South Australia,5,20150212,,-34.450971,140.569397
311,Council Office,A facility where a Local Government’s main council operations are regularly performed,Council Office,311,District Council of Mallala,Operational,Mallala (DC),2A Wasleys Road,Mallala,South Australia,5,20150212,,-34.438162,138.510994
312,Council Office,A facility where a Local Government’s main council operations are regularly performed,Council Office,312,City of Marion,Operational,Marion (C),245 Sturt Road,Sturt,South Australia,5,20150212,,-35.0178779999999,138.55171
313,Council Office,A facility where a Local Government’s main council operations are regularly performed,Council Office,313,Mid Murray Council,Operational,Mid Murray (DC),49 Adelaide Road,Mannum,South Australia,5,20150212,,-34.914384,139.303016
314,Council Office,A facility where a Local Government’s main council operations are regularly performed,Council Office,314,Mitcham City Council,Operational,Mitcham (C),131 Belair Road,Torrens Park,South Australia,5,20150212,,-34.976694,138.6097
315,Council Office,A facility where a Local Government’s main council operations are regularly performed,Council Office,315,District Council of Mount Barker,Operational,Mount Barker (DC),6 Dutton Road,Mount Barker,South Australia,5,20150212,,-35.0679969999999,138.865283
316,Council Office,A facility where a Local Government’s main council operations are regularly performed,Council Office,316,City of Mount Gambier,Operational,Mount Gambier (C),10 Watson Terrace,Mount Gambier,South Australia,5,20150212,,-37.830143,140.78136
317,Council Office,A facility where a Local Government’s main council operations are regularly performed,Council Office,317,District Council of Mount Remarkable,Operational,Mount Remarkable (DC),Stuart Street,Melrose,South Australia,5,20150212,,-32.826336,138.186873
318,Council Office,A facility where a Local Government’s main council operations are regularly performed,Council Office,318,Rural City of Murray Bridge,Operational,Murray Bridge (RC),2 Seventh Street,Murray Bridge,South Australia,5,20150212,,-35.120647,139.275711
319,Council Office,A facility where a Local Government’s main council operations are regularly performed,Council Office,319,Naracoorte Lucindale Council - Headquarters,Operational,Naracoorte Lucindale (DC),DeGaris Place,Naracoorte,South Australia,5,20150212,,-36.955009,140.744583
320,Council Office,A facility where a Local Government’s main council operations are regularly performed,Council Office,320,Naracoorte Lucindale Council - Lucindale Office,Operational,Naracoorte Lucindale (DC),34 Musgrave Avenue,Lucindale,South Australia,5,20150212,,-36.972747,140.369113
321,Council Office,A facility where a Local Government’s main council operations are regularly performed,Council Office,321,Northern Areas Council,Operational,Northern Areas (DC),94 Ayr Street,Jamestown,South Australia,5,20150212,,-33.2048589999999,138.60238
322,Council Office,A facility where a Local Government’s main council operations are regularly performed,Council Office,322,The City Of Norwood Payneham & St Peters,Operational,Norwood Payneham St Peters (C),175 The Parade,Norwood,South Australia,5,20150212,,-34.920925,138.636334
323,Council Office,A facility where a Local Government’s main council operations are regularly performed,Council Office,323,City of Onkaparinga - Headquarters,Operational,Onkaparinga (C),Ramsay Place,Noarlunga Centre,South Australia,5,20150212,,-35.140006,138.495445
324,Council Office,A facility where a Local Government’s main council operations are regularly performed,Council Office,324,City of Onkaparinga - Aberfoyle Park Office,Operational,Onkaparinga (C),The Hub,Aberfoyle Park,South Australia,3,20150212,,-35.0742959999999,138.593296
325,Council Office,A facility where a Local Government’s main council operations are regularly performed,Council Office,325,City of Onkaparinga - Willunga Office,Operational,Onkaparinga (C),St Peters Terrace,Willunga,South Australia,4,20150212,,-35.27189,138.554868
326,Council Office,A facility where a Local Government’s main council operations are regularly performed,Council Office,326,City of Onkaparinga - Woodcroft Office,Operational,Onkaparinga (C),175 Bains Road,Morphett Vale,South Australia,4,20150212,,-35.114167,138.544903
327,Council Office,A facility where a Local Government’s main council operations are regularly performed,Council Office,327,District Council of Orroroo-Carrieton,Operational,Orroroo-Carrieton (DC),17 Second Street,Orroroo,South Australia,5,20150212,,-32.73369,138.613156
328,Council Office,A facility where a Local Government’s main council operations are regularly performed,Council Office,328,District Council of Peterborough,Operational,Peterborough (DC),108 Main Street,Peterborough,South Australia,5,20150212,,-32.973423,138.838155
329,Council Office,A facility where a Local Government’s main council operations are regularly performed,Council Office,329,City of Playford,Operational,Playford (C),12 Bishopstone Road,Davoren Park,South Australia,2,20150212,,-34.700458,138.669509
330,Council Office,A facility where a Local Government’s main council operations are regularly performed,Council Office,330,City of Port Adelaide Enfield,Operational,Port Adelaide Enfield (C),163 St Vincent Street,Port Adelaide,South Australia,5,20150212,,-34.844307,138.503858
331,Council Office,A facility where a Local Government’s main council operations are regularly performed,Council Office,331,Port Augusta City Council,Operational,Port Augusta (C),4 Mackay Street,Port Augusta,South Australia,5,20150212,,-32.490833,137.76403
332,Council Office,A facility where a Local Government’s main council operations are regularly performed,Council Office,332,City of Port Lincoln,Operational,Port Lincoln (C),Level 1  60 Tasman Terrace,Port Lincoln,South Australia,4,20150212,,-34.719756,135.857333
333,Council Office,A facility where a Local Government’s main council operations are regularly performed,Council Office,333,Port Pirie Regional Council,Operational,Port Pirie City and Dists (M),115 Ellen Street,Port Pirie,South Australia,5,20150212,,-33.1774609999999,138.010687
334,Council Office,A facility where a Local Government’s main council operations are regularly performed,Council Office,334,City of Prospect,Operational,Prospect (C),128 Prospect Road,Prospect,South Australia,5,20150212,,-34.8860989999999,138.593777
335,Council Office,A facility where a Local Government’s main council operations are regularly performed,Council Office,335,District Council of Renmark Paringa,Operational,Renmark Paringa (DC),61 Eighteenth Street,Renmark,South Australia,5,20150212,,-34.1784509999999,140.747925
336,Council Office,A facility where a Local Government’s main council operations are regularly performed,Council Office,336,District Council of Robe,Operational,Robe (DC),Royal Circus,Robe,South Australia,5,20150212,,-37.1626939999999,139.75269
337,Council Office,A facility where a Local Government’s main council operations are regularly performed,Council Office,337,Municipal Council of Roxby Downs,Operational,Roxby Downs (M),Richardson Place,Roxby Downs,South Australia,2,20150212,,-30.5622979999999,136.89593
338,Council Office,A facility where a Local Government’s main council operations are regularly performed,Council Office,338,City of Salisbury,Operational,Salisbury (C),12 James Street,Salisbury,South Australia,4,20150212,,-34.761153,138.644532
339,Council Office,A facility where a Local Government’s main council operations are regularly performed,Council Office,339,Southern Mallee District Council,Operational,Southern Mallee (DC),Day Street,Pinnaroo,South Australia,5,20150212,,-35.261253,140.908708
340,Council Office,A facility where a Local Government’s main council operations are regularly performed,Council Office,340,District Council of Streaky Bay,Operational,Streaky Bay (DC),29 Alfred Terrace,Streaky Bay,South Australia,5,20150212,,-32.7959729999999,134.212008
341,Council Office,A facility where a Local Government’s main council operations are regularly performed,Council Office,341,Tatiara District Council,Operational,Tatiara (DC),43 Woolshed Street,Bordertown,South Australia,5,20150212,,-36.31082,140.773296
342,Council Office,A facility where a Local Government’s main council operations are regularly performed,Council Office,342,City of Tea Tree Gully Council,Operational,Tea Tree Gully (C),571 Montague Road,Modbury,South Australia,5,20150212,,-34.828334,138.690232
343,Council Office,A facility where a Local Government’s main council operations are regularly performed,Council Office,343,District Council of Tumby Bay,Operational,Tumby Bay (DC),Corner West Terrace and Mortlock Street,Tumby Bay,South Australia,5,20150212,,-34.3760639999999,136.100665
344,Council Office,A facility where a Local Government’s main council operations are regularly performed,Council Office,344,City of Unley,Operational,Unley (C),181 Unley Road,Unley,South Australia,5,20150212,,-34.950686,138.607814
345,Council Office,A facility where a Local Government’s main council operations are regularly performed,Council Office,345,City of Victor Harbor,Operational,Victor Harbor (C),1 Bay Road,Victor Harbor,South Australia,5,20150212,,-35.557217,138.611044
346,Council Office,A facility where a Local Government’s main council operations are regularly performed,Council Office,346,Wakefield Regional Council,Operational,Wakefield (DC),Scotland Street,Balaklava,South Australia,5,20150212,,-34.146114,138.413055
347,Council Office,A facility where a Local Government’s main council operations are regularly performed,Council Office,347,Town of Walkerville,Operational,Walkerville (M),66 Walkerville Terrace,Gilberton,South Australia,5,20150212,,-34.8975359999999,138.614589
348,Council Office,A facility where a Local Government’s main council operations are regularly performed,Council Office,348,Wattle Range Council - Headquarters,Operational,Wattle Range (DC),George Street,Millicent,South Australia,5,20150212,,-37.59293,140.350183
349,Council Office,A facility where a Local Government’s main council operations are regularly performed,Council Office,349,Wattle Range Council - Beachport Office,Operational,Wattle Range (DC),Millicent Road,Beachport,South Australia,5,20150212,,-37.480284,140.013367
350,Council Office,A facility where a Local Government’s main council operations are regularly performed,Council Office,350,Wattle Range Council - Penola Office,Operational,Wattle Range (DC),27 Arthur Street,Penola,South Australia,5,20150212,,-37.377654,140.837826
351,Council Office,A facility where a Local Government’s main council operations are regularly performed,Council Office,351,City of West Torrens,Operational,West Torrens (C),165 Sir Donald Bradman Drive,Hilton,South Australia,5,20150212,,-34.932469,138.561941
352,Council Office,A facility where a Local Government’s main council operations are regularly performed,Council Office,352,District Council of Yankalilla,Operational,Yankalilla (DC),1 Charles Street,Yankalilla,South Australia,5,20150212,,-35.4572249999999,138.350836
353,Council Office,A facility where a Local Government’s main council operations are regularly performed,Council Office,353,District Council of Yorke Peninsula,Operational,Yorke Peninsula (DC),8 Elizabeth Street,Maitland,South Australia,5,20150212,,-34.374969,137.675237
354,Council Office,A facility where a Local Government’s main council operations are regularly performed,Council Office,354,Whyalla City Council,Operational,Whyalla (C),Darling Terrace,Whyalla,South Australia,5,20141203,,-33.0344679999999,137.585415
355,Council Office,A facility where a Local Government’s main council operations are regularly performed,Council Office,355,Break O'Day Council,Operational,Break O'Day (M),Steele Street,St Helens,Tasmania,5,20120206,,-41.325863,148.248145
356,Council Office,A facility where a Local Government’s main council operations are regularly performed,Council Office,356,Brighton Council,Operational,Brighton (M),1 Tivoli Road,Old Beach,Tasmania,5,20141204,,-42.751065,147.278182
357,Council Office,A facility where a Local Government’s main council operations are regularly performed,Council Office,357,Central Coast Council,Operational,Central Coast (M),19 King Edward Street,Ulverstone,Tasmania,5,20120206,,-41.1560299999999,146.172419
358,Council Office,A facility where a Local Government’s main council operations are regularly performed,Council Office,358,Central Highlands Council,Operational,Central Highlands (M),6 Tarleton Street,Hamilton,Tasmania,5,20120206,,-42.5600939999999,146.829727
359,Council Office,A facility where a Local Government’s main council operations are regularly performed,Council Office,359,Circular Head Council,Operational,Circular Head (M),33 Goldie Street,Smithton,Tasmania,5,20120206,,-40.8436869999999,145.127074
360,Council Office,A facility where a Local Government’s main council operations are regularly performed,Council Office,360,Burnie City Council,Operational,Burnie (C),80 Wilson Street,Burnie,Tasmania,5,20120206,,-41.053149,145.90581
361,Council Office,A facility where a Local Government’s main council operations are regularly performed,Council Office,361,Clarence City Council,Operational,Clarence (C),38 Bligh Street,Clarence,Tasmania,5,20120206,,-42.8645069999999,147.368604
362,Council Office,A facility where a Local Government’s main council operations are regularly performed,Council Office,362,Devonport City Council,Operational,Devonport (C),44-48 Best Street,Devonport,Tasmania,5,20120206,,-41.177758,146.359234
363,Council Office,A facility where a Local Government’s main council operations are regularly performed,Council Office,363,Glenorchy City Council,Operational,Glenorchy (C),374 Main Road,Glenorchy,Tasmania,5,20120206,,-42.833682,147.274948
364,Council Office,A facility where a Local Government’s main council operations are regularly performed,Council Office,364,Hobart City Council,Operational,Hobart (C),Davey Street,Hobart,Tasmania,5,20120206,,-42.883451,147.331306
365,Council Office,A facility where a Local Government’s main council operations are regularly performed,Council Office,365,Launceston City Council,Operational,Launceston (C),St John Street,Launceston,Tasmania,5,20120206,,-41.435507,147.137217
366,Council Office,A facility where a Local Government’s main council operations are regularly performed,Council Office,366,Derwent Valley Council,Operational,Derwent Valley (M),Circle Street,New Norfolk,Tasmania,5,20120206,,-42.7816139999999,147.060649
367,Council Office,A facility where a Local Government’s main council operations are regularly performed,Council Office,367,Dorset Council,Operational,Dorset (M),3 Ellenor Street,Scottsdale,Tasmania,5,20120206,,-41.158531,147.516619
368,Council Office,A facility where a Local Government’s main council operations are regularly performed,Council Office,368,Flinders Council,Operational,Flinders (M),4 Davies Street,Whitemark,Tasmania,3,20120206,,-40.1222759999999,148.016752
369,Council Office,A facility where a Local Government’s main council operations are regularly performed,Council Office,369,George Town Council,Operational,George Town (M),16-18 Anne Street,George Town,Tasmania,5,20120206,,-41.1052989999999,146.823199
370,Council Office,A facility where a Local Government’s main council operations are regularly performed,Council Office,370,Glamorgan-Spring Bay Council,Operational,Glamorgan-Spring Bay (M),Corner Vicary Street and Henry Street,Triabunna,Tasmania,5,20120206,,-42.507888,147.917107
371,Council Office,A facility where a Local Government’s main council operations are regularly performed,Council Office,371,Huon Valley Council,Operational,Huon Valley (M),40 Main Street,Huonville,Tasmania,5,20120206,,-43.030541,147.048974
372,Council Office,A facility where a Local Government’s main council operations are regularly performed,Council Office,372,Kentish Council,Operational,Kentish (M),69 High Street,Sheffield,Tasmania,5,20120206,,-41.379717,146.3264
373,Council Office,A facility where a Local Government’s main council operations are regularly performed,Council Office,373,King Island Council,Operational,King Island (M),10 George Street,Currie,Tasmania,3,20120206,,-39.9297979999999,143.854369
374,Council Office,A facility where a Local Government’s main council operations are regularly performed,Council Office,374,Kingborough Council,Operational,Kingborough (M),15 Channel Highway,Kingston,Tasmania,5,20120206,,-42.975632,147.311488
375,Council Office,A facility where a Local Government’s main council operations are regularly performed,Council Office,375,Latrobe Council,Operational,Latrobe (M),170 Gilbert Street,Latrobe,Tasmania,5,20120206,,-41.2363579999999,146.415552
376,Council Office,A facility where a Local Government’s main council operations are regularly performed,Council Office,376,Meander Valley Council,Operational,Meander Valley (M),26 Lyall Street,Westbury,Tasmania,5,20120206,,-41.527979,146.830646
377,Council Office,A facility where a Local Government’s main council operations are regularly performed,Council Office,377,Northern Midlands Council,Operational,Northern Midlands (M),13 Smith Street,Longford,Tasmania,5,20120206,,-41.5929619999999,147.118656
378,Council Office,A facility where a Local Government’s main council operations are regularly performed,Council Office,378,Sorell Council,Operational,Sorell (M),47 Cole Street,Sorell,Tasmania,3,20120206,,-42.78027,147.560963
379,Council Office,A facility where a Local Government’s main council operations are regularly performed,Council Office,379,South Midlands Council,Operational,Southern Midlands (M),71 High Street,Oatlands,Tasmania,3,20120206,,-42.299898,147.371962
380,Council Office,A facility where a Local Government’s main council operations are regularly performed,Council Office,380,Tasman Council,Operational,Tasman (M),1713 Main Road,Nubeena,Tasmania,4,20120206,,-43.105089,147.744049
381,Council Office,A facility where a Local Government’s main council operations are regularly performed,Council Office,381,Waratah-Wynyard Council,Operational,Waratah-Wynyard (M),21 Saunders Street,Wynyard,Tasmania,5,20120206,,-40.990447,145.726293
382,Council Office,A facility where a Local Government’s main council operations are regularly performed,Council Office,382,West Coast Council,Operational,West Coast (M),11 Sticht Street,Queenstown,Tasmania,3,20120206,,-42.078853,145.556481
383,Council Office,A facility where a Local Government’s main council operations are regularly performed,Council Office,383,West Tamar Council - Headquarters,Operational,West Tamar (M),West Street,Beaconsfield,Tasmania,5,20120206,,-41.200971,146.814221
384,Council Office,A facility where a Local Government’s main council operations are regularly performed,Council Office,384,West Tamar Council - Office,Operational,West Tamar (M),Eden Street,Riverside,Tasmania,5,20120206,,-41.41484,147.103394
385,Council Office,A facility where a Local Government’s main council operations are regularly performed,Council Office,385,Alpine Shire Council,Operational,Alpine (S),Great Alpine Road,Bright,Victoria,3,20141207,,-36.728316,146.968649
386,Council Office,A facility where a Local Government’s main council operations are regularly performed,Council Office,386,Ararat Rural City Council,Operational,Ararat (RC),Corner Vincent Street and High Street,Ararat,Victoria,5,20140209,,-37.282792,142.931395
387,Council Office,A facility where a Local Government’s main council operations are regularly performed,Council Office,387,City of Ballarat,Operational,Ballarat (C),25 Armstrong Street South,Ballarat,Victoria,3,20140209,,-37.563172,143.856381
388,Council Office,A facility where a Local Government’s main council operations are regularly performed,Council Office,388,Banyule City Council,Operational,Banyule (C),44 Turnham Avenue,Rosanna,Victoria,4,20140209,,-37.7432959999999,145.06715
389,Council Office,A facility where a Local Government’s main council operations are regularly performed,Council Office,389,Bass Coast Shire Council,Operational,Bass Coast (S),76 McBride Avenue,Wonthaggi,Victoria,4,20140209,,-38.607895,145.590899
390,Council Office,A facility where a Local Government’s main council operations are regularly performed,Council Office,390,Baw Baw Shire Council - Drouin Office,Operational,Baw Baw (S),33 Young Street,Drouin,Victoria,5,20140209,,-38.135342,145.859339
391,Council Office,A facility where a Local Government’s main council operations are regularly performed,Council Office,391,Baw Baw Shire Council - Warragul Office,Operational,Baw Baw (S),1 Civic Place,Warragul,Victoria,5,20140209,,-38.1587929999999,145.933745
392,Council Office,A facility where a Local Government’s main council operations are regularly performed,Council Office,392,Bayside City Council,Operational,Bayside (C),76 Royal Avenue,Sandringham,Victoria,5,20140209,,-37.959448,145.01713
393,Council Office,A facility where a Local Government’s main council operations are regularly performed,Council Office,393,Benalla Rural City Council,Operational,Benalla (RC),1 Bridge Street East,Benalla,Victoria,5,20140209,,-36.551791,145.982183
394,Council Office,A facility where a Local Government’s main council operations are regularly performed,Council Office,394,Boroondara City Council,Operational,Boroondara (C),8 Inglesby Road,Camberwell,Victoria,5,20140209,,-37.834671,145.059427
395,Council Office,A facility where a Local Government’s main council operations are regularly performed,Council Office,395,Brimbank City Council,Operational,Brimbank (C),704B Old Calder Highway,Keilor,Victoria,5,20140209,,-37.716783,144.831451
396,Council Office,A facility where a Local Government’s main council operations are regularly performed,Council Office,396,Buloke Shire Council,Operational,Buloke (S),367 Broadway,Wycheproof,Victoria,5,20140209,,-36.075259,143.224966
397,Council Office,A facility where a Local Government’s main council operations are regularly performed,Council Office,397,Campaspe Shire Council - Headquarters,Operational,Campaspe (S),2 Heygarth Street,Echuca,Victoria,5,20140209,,-36.123751,144.749307
398,Council Office,A facility where a Local Government’s main council operations are regularly performed,Council Office,398,Campaspe Shire Council - Kyabram Office,Operational,Campaspe (S),19 Lake Road,Kyabram,Victoria,3,20140209,,-36.316154,145.045925
399,Council Office,A facility where a Local Government’s main council operations are regularly performed,Council Office,399,Campaspe Shire Council - Rochester Office,Operational,Campaspe (S),43-45 Mackay Street,Rochester,Victoria,5,20140209,,-36.362043,144.701312
400,Council Office,A facility where a Local Government’s main council operations are regularly performed,Council Office,400,Campaspe Shire Council - Rushworth Office,Operational,Campaspe (S),33 High Street,Rushworth,Victoria,5,20140209,,-36.5877869999999,145.015656
401,Council Office,A facility where a Local Government’s main council operations are regularly performed,Council Office,401,Campaspe Shire Council - Tongala Office,Operational,Campaspe (S),37 Mangan Street,Tongala,Victoria,5,20140209,,-36.2505409999999,144.949355
402,Council Office,A facility where a Local Government’s main council operations are regularly performed,Council Office,402,Cardinia Shire Council,Operational,Cardinia (S),20 Siding Avenue,Officer,Victoria,2,20140209,,-38.065844,145.413265
403,Council Office,A facility where a Local Government’s main council operations are regularly performed,Council Office,403,Casey City Council,Operational,Casey (C),Magid Drive,Narre Warren,Victoria,5,20140209,,-38.0190299999999,145.301255
404,Council Office,A facility where a Local Government’s main council operations are regularly performed,Council Office,404,Central Goldfields Shire Council,Operational,Central Goldfields (S),12-22 Nolan Street,Maryborough,Victoria,3,20140209,,-37.0510169999999,143.7404
405,Council Office,A facility where a Local Government’s main council operations are regularly performed,Council Office,405,Colac-Otway Shire Council,Operational,Colac-Otway (S),2-6 Rae Street,Colac,Victoria,5,20140209,,-38.342328,143.584891
406,Council Office,A facility where a Local Government’s main council operations are regularly performed,Council Office,406,Corangamite Shire Council,Operational,Corangamite (S),181 Manifold Street,Camperdown,Victoria,5,20140209,,-38.2324639999999,143.146174
407,Council Office,A facility where a Local Government’s main council operations are regularly performed,Council Office,407,Darebin City Council,Operational,Darebin (C),274 Gower Street,Preston,Victoria,4,20140209,,-37.739705,145.004447
408,Council Office,A facility where a Local Government’s main council operations are regularly performed,Council Office,408,East Gippsland Shire Council,Operational,East Gippsland (S),273 Main Street,Bairnsdale,Victoria,5,20140209,,-37.827755,147.624962
409,Council Office,A facility where a Local Government’s main council operations are regularly performed,Council Office,409,Frankston City Council,Operational,Frankston (C),30 Davey Street,Frankston,Victoria,5,20140209,,-38.1469969999999,145.122571
410,Council Office,A facility where a Local Government’s main council operations are regularly performed,Council Office,410,Gannawarra Shire Council,Operational,Gannawarra (S),23-25 King Edward Street,Cohuna,Victoria,5,20140209,,-35.810824,144.22077
411,Council Office,A facility where a Local Government’s main council operations are regularly performed,Council Office,411,Glen Eira City Council,Operational,Glen Eira (C),420 Glen Eira Road,Caulfield North,Victoria,5,20140209,,-37.880233,145.02256
412,Council Office,A facility where a Local Government’s main council operations are regularly performed,Council Office,412,Glenelg Shire Council,Operational,Glenelg (S),Cliff Street,Portland,Victoria,5,20140209,,-38.3519029999999,141.607251
413,Council Office,A facility where a Local Government’s main council operations are regularly performed,Council Office,413,Golden Plains Shire Council,Operational,Golden Plains (S),2 Pope Street,Bannockburn,Victoria,3,20140209,,-38.050902,144.173204
414,Council Office,A facility where a Local Government’s main council operations are regularly performed,Council Office,414,Greater Bendigo City Council,Operational,Greater Bendigo (C),195-229 Lyttleton Terrace,Bendigo,Victoria,5,20140209,,-36.7590339999999,144.283605
415,Council Office,A facility where a Local Government’s main council operations are regularly performed,Council Office,415,Greater Dandenong City Council,Operational,Greater Dandenong (C),225 Lonsdale Street,Dandenong,Victoria,4,20140209,,-37.988414,145.21392
416,Council Office,A facility where a Local Government’s main council operations are regularly performed,Council Office,416,Greater Geelong City Council,Operational,Greater Geelong (C),30 Gheringhap Street,Geelong,Victoria,5,20140209,,-38.1471819999999,144.357486
417,Council Office,A facility where a Local Government’s main council operations are regularly performed,Council Office,417,Greater Shepparton City Council,Operational,Greater Shepparton (C),90 Welsford Street,Shepparton,Victoria,5,20140209,,-36.377913,145.397896
418,Council Office,A facility where a Local Government’s main council operations are regularly performed,Council Office,418,Hepburn Shire Council,Operational,Hepburn (S),76 Vincent Street,Daylesford,Victoria,5,20140209,,-37.342995,144.142134
419,Council Office,A facility where a Local Government’s main council operations are regularly performed,Council Office,419,Hindmarsh Shire Council,Operational,Hindmarsh (S),92 Nelson Street,Nhill,Victoria,5,20140209,,-36.3325379999999,141.650967
420,Council Office,A facility where a Local Government’s main council operations are regularly performed,Council Office,420,Hobsons Bay City Council,Operational,Hobsons Bay (C),115 Civic Parade,Altona,Victoria,5,20140209,,-37.863963,144.831086
421,Council Office,A facility where a Local Government’s main council operations are regularly performed,Council Office,421,Horsham Rural City Council,Operational,Horsham (RC),18 Roberts Avenue,Horsham,Victoria,5,20140209,,-36.7139089999999,142.201798
422,Council Office,A facility where a Local Government’s main council operations are regularly performed,Council Office,422,Hume City Council,Operational,Hume (C),1093 Pascoe Vale Road,Broadmeadows,Victoria,5,20140209,,-37.6819149999999,144.917975
423,Council Office,A facility where a Local Government’s main council operations are regularly performed,Council Office,423,Indigo Shire Council,Operational,Indigo (S),34 High Street,Yackandandah,Victoria,3,20140209,,-36.3130609999999,146.837155
424,Council Office,A facility where a Local Government’s main council operations are regularly performed,Council Office,424,Kingston City Council,Operational,Kingston (C),1230 Nepean Highway,Cheltenham,Victoria,5,20140209,,-37.966196,145.057629
425,Council Office,A facility where a Local Government’s main council operations are regularly performed,Council Office,425,Knox City Council,Operational,Knox (C),511 Burwood Highway,Wantirna South,Victoria,5,20140209,,-37.871451,145.2452
426,Council Office,A facility where a Local Government’s main council operations are regularly performed,Council Office,426,Latrobe City Council,Operational,Latrobe (C),141 Commercial Road,Morwell,Victoria,5,20140209,,-38.236687,146.395427
427,Council Office,A facility where a Local Government’s main council operations are regularly performed,Council Office,427,Loddon Shire Council,Operational,Loddon (S),37-41 High Street,Wedderburn,Victoria,5,20140209,,-36.420285,143.614467
428,Council Office,A facility where a Local Government’s main council operations are regularly performed,Council Office,428,Macedon Ranges Shire Council,Operational,Macedon Ranges (S),129-141 Mollison Street,Kyneton,Victoria,5,20140209,,-37.2473639999999,144.453226
429,Council Office,A facility where a Local Government’s main council operations are regularly performed,Council Office,429,Manningham City Council,Operational,Manningham (C),699 Doncaster Road,Doncaster,Victoria,5,20140209,,-37.7867229999999,145.132462
430,Council Office,A facility where a Local Government’s main council operations are regularly performed,Council Office,430,Mansfield Shire Council,Operational,Mansfield (S),33 Highett Street,Mansfield,Victoria,5,20140209,,-37.05366,146.087002
431,Council Office,A facility where a Local Government’s main council operations are regularly performed,Council Office,431,Maribyrnong City Council,Operational,Maribyrnong (C),Corner Hyde Street and Napier Street,Footscray,Victoria,5,20140209,,-37.804637,144.900614
432,Council Office,A facility where a Local Government’s main council operations are regularly performed,Council Office,432,Maroondah City Council,Operational,Maroondah (C),Braeside Avenue,Ringwood,Victoria,5,20140209,,-37.8081759999999,145.24245
433,Council Office,A facility where a Local Government’s main council operations are regularly performed,Council Office,433,Melbourne City Council,Operational,Melbourne (C),120 Swanston Street,Melbourne,Victoria,5,20140209,,-37.814985,144.966736
434,Council Office,A facility where a Local Government’s main council operations are regularly performed,Council Office,434,Melton City Council,Operational,Melton (C),232 High Street,Melton,Victoria,5,20140209,,-37.6821859999999,144.587142
435,Council Office,A facility where a Local Government’s main council operations are regularly performed,Council Office,435,Mildura Rural City Council,Operational,Mildura (RC),108-116 Madden Avenue,Mildura,Victoria,5,20140209,,-34.188703,142.160942
436,Council Office,A facility where a Local Government’s main council operations are regularly performed,Council Office,436,Mitchell Shire Council,Operational,Mitchell (S),113 High Street,Broadford,Victoria,5,20140209,,-37.2030119999999,145.048849
437,Council Office,A facility where a Local Government’s main council operations are regularly performed,Council Office,437,Moira Shire Council,Operational,Moira (S),44 Station Street,Cobram,Victoria,5,20140209,,-35.9219669999999,145.646091
438,Council Office,A facility where a Local Government’s main council operations are regularly performed,Council Office,438,Monash City Council,Operational,Monash (C),293 Springvale Road,Glen Waverley,Victoria,5,20140209,,-37.882312,145.164499
439,Council Office,A facility where a Local Government’s main council operations are regularly performed,Council Office,439,Moonee Valley City Council,Operational,Moonee Valley (C),9 Kellaway Avenue,Moonee Ponds,Victoria,5,20140209,,-37.764173,144.925
440,Council Office,A facility where a Local Government’s main council operations are regularly performed,Council Office,440,Moorabool Shire Council,Operational,Moorabool (S),15 Stead Street,Ballan,Victoria,5,20140209,,-37.601683,144.227654
441,Council Office,A facility where a Local Government’s main council operations are regularly performed,Council Office,441,Moreland City Council,Operational,Moreland (C),90 Bell Street,Coburg,Victoria,5,20140209,,-37.7410839999999,144.969259
442,Council Office,A facility where a Local Government’s main council operations are regularly performed,Council Office,442,Mornington Peninsula Shire Council - Mornington Office,Operational,Mornington Peninsula (S),2 Queen Street,Mornington,Victoria,5,20140209,,-38.217705,145.036533
443,Council Office,A facility where a Local Government’s main council operations are regularly performed,Council Office,443,Mornington Peninsula Shire Council - Hastings Office,Operational,Mornington Peninsula (S),21 Marine Parade,Hastings,Victoria,5,20140209,,-38.308077,145.194634
444,Council Office,A facility where a Local Government’s main council operations are regularly performed,Council Office,444,Mornington Peninsula Shire Council - Rosebud Office,Operational,Mornington Peninsula (S),90 Besgrove Street,Rosebud,Victoria,5,20140209,,-38.370801,144.891481
445,Council Office,A facility where a Local Government’s main council operations are regularly performed,Council Office,445,Mornington Peninsula Shire Council - Somerville Office,Operational,Mornington Peninsula (S),14 Edward Street,Somerville,Victoria,3,20140209,,-38.2250119999999,145.172617
446,Council Office,A facility where a Local Government’s main council operations are regularly performed,Council Office,446,Mount Alexander Shire Council,Operational,Mount Alexander (S),27 Lyttleton Street,Castlemaine,Victoria,3,20140209,,-37.064431,144.218687
447,Council Office,A facility where a Local Government’s main council operations are regularly performed,Council Office,447,Moyne Shire Council,Operational,Moyne (S),Princes Street,Port Fairy,Victoria,5,20140209,,-38.3853119999999,142.238179
448,Council Office,A facility where a Local Government’s main council operations are regularly performed,Council Office,448,Murrindindi Shire Council,Operational,Murrindindi (S),Perkins Street,Alexandra,Victoria,5,20140209,,-37.190714,145.710344
449,Council Office,A facility where a Local Government’s main council operations are regularly performed,Council Office,449,Nillumbik Shire Council,Operational,Nillumbik (S),Civic Drive,Greensborough,Victoria,5,20140209,,-37.688975,145.10856
450,Council Office,A facility where a Local Government’s main council operations are regularly performed,Council Office,450,Northern Grampians Shire Council,Operational,Northern Grampians (S),63-65 Main Street,Stawell,Victoria,5,20140209,,-37.0565839999999,142.778936
451,Council Office,A facility where a Local Government’s main council operations are regularly performed,Council Office,451,Port Phillip City Council,Operational,Port Phillip (C),333 Bay Street,Port Melbourne,Victoria,5,20140209,,-37.8356889999999,144.944569
452,Council Office,A facility where a Local Government’s main council operations are regularly performed,Council Office,452,Pyrenees Shire Council,Operational,Pyrenees (S),5 Lawrence Street,Beaufort,Victoria,5,20140209,,-37.428311,143.384261
453,Council Office,A facility where a Local Government’s main council operations are regularly performed,Council Office,453,Queenscliffe Borough Council,Operational,Queenscliffe (B),50 Learmonth Street,Queenscliff,Victoria,3,20140209,,-38.267725,144.658894
454,Council Office,A facility where a Local Government’s main council operations are regularly performed,Council Office,454,South Gippsland Shire Council,Operational,South Gippsland (S),9 Smith Street,Leongatha,Victoria,5,20140209,,-38.475782,145.945001
455,Council Office,A facility where a Local Government’s main council operations are regularly performed,Council Office,455,Southern Grampians Shire Council,Operational,Southern Grampians (S),111 Brown Street,Hamilton,Victoria,5,20140209,,-37.742228,142.024429
456,Council Office,A facility where a Local Government’s main council operations are regularly performed,Council Office,456,City Of Stonnington - Headquarters,Operational,Stonnington (C),1251 High Street,Malvern,Victoria,5,20140209,,-37.856328,145.029874
457,Council Office,A facility where a Local Government’s main council operations are regularly performed,Council Office,457,City Of Stonnington - Prahran Office,Operational,Stonnington (C),180 Greville Street,Prahran,Victoria,5,20140209,,-37.849595,144.993171
458,Council Office,A facility where a Local Government’s main council operations are regularly performed,Council Office,458,Strathbogie Shire Council,Operational,Strathbogie (S),109A Binney Street,Euroa,Victoria,5,20140209,,-36.753077,145.572731
459,Council Office,A facility where a Local Government’s main council operations are regularly performed,Council Office,459,Surf Coast Shire Council,Operational,Surf Coast (S),1 Merijig Drive,Torquay,Victoria,4,20140209,,-38.306772,144.321564
460,Council Office,A facility where a Local Government’s main council operations are regularly performed,Council Office,460,Swan Hill Rural City Council,Operational,Swan Hill (RC),45 Splatt Street,Swan Hill,Victoria,5,20140209,,-35.339942,143.55718
461,Council Office,A facility where a Local Government’s main council operations are regularly performed,Council Office,461,Towong Shire Council,Operational,Towong (S),32 Towong Street,Tallangatta,Victoria,5,20140209,,-36.215883,147.17688
462,Council Office,A facility where a Local Government’s main council operations are regularly performed,Council Office,462,Wangaratta Rural City Council,Operational,Wangaratta (RC),64-68 Ovens Street,Wangaratta,Victoria,5,20140209,,-36.354867,146.323734
463,Council Office,A facility where a Local Government’s main council operations are regularly performed,Council Office,463,Warrnambool City Council,Operational,Warrnambool (C),25 Liebig Street,Warrnambool,Victoria,5,20140209,,-38.3856919999999,142.481483
464,Council Office,A facility where a Local Government’s main council operations are regularly performed,Council Office,464,Wellington Shire Council,Operational,Wellington (S),70 Foster Street,Sale,Victoria,5,20140209,,-38.1118,147.063626
465,Council Office,A facility where a Local Government’s main council operations are regularly performed,Council Office,465,West Wimmera Shire Council - Headquarters,Operational,West Wimmera (S),49 Elizabeth Street,Edenhope,Victoria,5,20140209,,-37.036131,141.297274
466,Council Office,A facility where a Local Government’s main council operations are regularly performed,Council Office,466,West Wimmera Shire Council - Kaniva Office,Operational,West Wimmera (S),25 Baker Street,Kaniva,Victoria,5,20140209,,-36.378116,141.24153
467,Council Office,A facility where a Local Government’s main council operations are regularly performed,Council Office,467,Whitehorse City Council,Operational,Whitehorse (C),379-397 Whitehorse Road,Nunawading,Victoria,5,20140209,,-37.817573,145.181285
468,Council Office,A facility where a Local Government’s main council operations are regularly performed,Council Office,468,Whittlesea City Council,Operational,Whittlesea (C),25 Ferres Boulevard,South Morang,Victoria,5,20140209,,-37.645183,145.067703
469,Council Office,A facility where a Local Government’s main council operations are regularly performed,Council Office,469,Wodonga City Council,Operational,Wodonga (RC),104 Hovell Street,Wodonga,Victoria,5,20140209,,-36.1230879999999,146.889707
470,Council Office,A facility where a Local Government’s main council operations are regularly performed,Council Office,470,Wyndham City Council,Operational,Wyndham (C),45 Princes Highway,Werribee,Victoria,5,20140209,,-37.897211,144.670777
471,Council Office,A facility where a Local Government’s main council operations are regularly performed,Council Office,471,Yarra City Council,Operational,Yarra (C),333 Bridge Road,Richmond,Victoria,5,20140209,,-37.818543,145.000845
472,Council Office,A facility where a Local Government’s main council operations are regularly performed,Council Office,472,Yarra Ranges Shire Council,Operational,Yarra Ranges (S),15 Anderson Street,Lilydale,Victoria,5,20140209,,-37.759694,145.35342
473,Council Office,A facility where a Local Government’s main council operations are regularly performed,Council Office,473,Yarriambiack Shire Council,Operational,Yarriambiack (S),34 Lyle Street,Warracknabeal,Victoria,5,20140209,,-36.252966,142.392581
474,Council Office,A facility where a Local Government’s main council operations are regularly performed,Council Office,474,City of Albany Council Office,Operational,Albany (C),102 North Road,Yakamia,Western Australia,5,20141206,,-35.0083759999999,117.884968
475,Council Office,A facility where a Local Government’s main council operations are regularly performed,Council Office,475,City of Armadale Council Office,Operational,Armadale (C),7 Orchard Avenue,Armadale,Western Australia,5,20141207,,-32.1497709999999,116.016543
476,Council Office,A facility where a Local Government’s main council operations are regularly performed,Council Office,476,Shire of Ashburton - Headquarters,Operational,Ashburton (S),LOT 246 Poinciana Street,Tom Price,Western Australia,5,20150216,,-22.6967359999999,117.795346
477,Council Office,A facility where a Local Government’s main council operations are regularly performed,Council Office,477,Shire of Ashburton - Onslow Office,Operational,Ashburton (S),Second Avenue,Onslow,Western Australia,2,20150216,,-21.6370289999999,115.112613
478,Council Office,A facility where a Local Government’s main council operations are regularly performed,Council Office,478,Shire of Ashburton - Paraburdoo Office,Operational,Ashburton (S),Ashburton Avenue,Paraburdoo,Western Australia,2,20150216,,-23.200257,117.671537
479,Council Office,A facility where a Local Government’s main council operations are regularly performed,Council Office,479,Shire of Augusta-Margaret River Council Office - Margaret River,Operational,Augusta-Margaret River (S),41 Wallcliffe Road,Margaret River,Western Australia,2,20150216,,-33.953695,115.06761
480,Council Office,A facility where a Local Government’s main council operations are regularly performed,Council Office,480,Shire of Augusta-Margaret River Council Office - Augusta,Operational,Augusta-Margaret River (S),66 Allnutt Terrace,Augusta,Western Australia,5,20150216,,-34.3140079999999,115.155974
481,Council Office,A facility where a Local Government’s main council operations are regularly performed,Council Office,481,Town of Bassendean,Operational,Bassendean (T),48 Old Perth Road,Bassendean,Western Australia,5,20150216,,-31.904173,115.949622
482,Council Office,A facility where a Local Government’s main council operations are regularly performed,Council Office,482,City of Bayswater Council,Operational,Bayswater (C),61 Broun Avenue,Morley,Western Australia,5,20150216,,-31.906062,115.901558
483,Council Office,A facility where a Local Government’s main council operations are regularly performed,Council Office,483,City of Belmont,Operational,Belmont (C),215 Wright Street,Cloverdale,Western Australia,5,20150216,,-31.962369,115.933972
484,Council Office,A facility where a Local Government’s main council operations are regularly performed,Council Office,484,Shire of Beverley,Operational,Beverley (S),136 Vincent Street,Beverley,Western Australia,5,20150216,,-32.1089929999999,116.924397
485,Council Office,A facility where a Local Government’s main council operations are regularly performed,Council Office,485,Shire of Boddington,Operational,Boddington (S),39 Bannister Road,Boddington,Western Australia,5,20150216,,-32.802319,116.475122
486,Council Office,A facility where a Local Government’s main council operations are regularly performed,Council Office,486,Shire of Boyup Brook,Operational,Boyup Brook (S),Abel Street,Boyup Brook,Western Australia,3,20150216,,-33.8321309999999,116.38634
487,Council Office,A facility where a Local Government’s main council operations are regularly performed,Council Office,487,Shire of Bridgetown - Greenbushes,Operational,Bridgetown - Greenbushes (S),1 Steere Street,Bridgetown,Western Australia,5,20150216,,-33.957868,116.137427
488,Council Office,A facility where a Local Government’s main council operations are regularly performed,Council Office,488,Shire of Brookton,Operational,Brookton (S),14 White Street,Brookton,Western Australia,5,20150216,,-32.368756,117.007172
489,Council Office,A facility where a Local Government’s main council operations are regularly performed,Council Office,489,Shire of Broome,Operational,Broome (S),27 Weld Street,Broome,Western Australia,5,20150216,,-17.9600849999999,122.239382
490,Council Office,A facility where a Local Government’s main council operations are regularly performed,Council Office,490,Shire of Broomehill-Tambellup,Operational,Broomehill-Tambellup (S),46-48 Norrish Street,Tambellup,Western Australia,5,20150216,,-34.043932,117.641585
491,Council Office,A facility where a Local Government’s main council operations are regularly performed,Council Office,491,Shire of Bruce Rock,Operational,Bruce Rock (S),54 Johnson Street,Bruce Rock,Western Australia,3,20150216,,-31.8790799999999,118.148402
492,Council Office,A facility where a Local Government’s main council operations are regularly performed,Council Office,492,City of Bunbury,Operational,Bunbury (C),4 Stephen Street,Bunbury,Western Australia,5,20150216,,-33.325975,115.636044
493,Council Office,A facility where a Local Government’s main council operations are regularly performed,Council Office,493,City of Busselton,Operational,Busselton (C),2 Southern Drive,Busselton,Western Australia,5,20150216,,-33.6549449999999,115.346365
494,Council Office,A facility where a Local Government’s main council operations are regularly performed,Council Office,494,Town of Cambridge,Operational,Cambridge (T),1 Bold Park Drive,Floreat,Western Australia,5,20150216,,-31.93634,115.777517
495,Council Office,A facility where a Local Government’s main council operations are regularly performed,Council Office,495,City of Canning,Operational,Canning (C),1317 Albany Highway,Cannington,Western Australia,5,20150216,,-32.017013,115.929828
496,Council Office,A facility where a Local Government’s main council operations are regularly performed,Council Office,496,Shire of Capel,Operational,Capel (S),31 Forrest Road,Capel,Western Australia,5,20150216,,-33.553234,115.562949
497,Council Office,A facility where a Local Government’s main council operations are regularly performed,Council Office,497,Shire of Carnamah,Operational,Carnamah (S),33-37 Macpherson Street,Carnamah,Western Australia,5,20150216,,-29.687149,115.889516
498,Council Office,A facility where a Local Government’s main council operations are regularly performed,Council Office,498,Shire of Carnarvon,Operational,Carnarvon (S),3 Francis Street,Carnarvon,Western Australia,3,20150216,,-24.8844849999999,113.657603
499,Council Office,A facility where a Local Government’s main council operations are regularly performed,Council Office,499,Shire of Chapman Valley,Operational,Chapman Valley (S),LOT 7 Chapman Valley Road,Nabawa,Western Australia,5,20150216,,-28.501212,114.789524
500,Council Office,A facility where a Local Government’s main council operations are regularly performed,Council Office,500,Shire of Chittering,Operational,Chittering (S),6177 Great Northern Highway,Bindoon,Western Australia,5,20150216,,-31.386231,116.096189
501,Council Office,A facility where a Local Government’s main council operations are regularly performed,Council Office,501,Shire of Christmas Island,Operational,Unincorp. Other Territories,2 Murray Road,Christmas Island,Western Australia,4,20150216,,-10.4216259999999,105.674283
502,Council Office,A facility where a Local Government’s main council operations are regularly performed,Council Office,502,Town of Claremont,Operational,Claremont (T),308 Stirling Highway,Claremont,Western Australia,5,20150216,,-31.9832749999999,115.781826
503,Council Office,A facility where a Local Government’s main council operations are regularly performed,Council Office,503,City of Cockburn,Operational,Cockburn (C),9 Coleville Crescent,Spearwood,Western Australia,5,20150216,,-32.1002799999999,115.783768
504,Council Office,A facility where a Local Government’s main council operations are regularly performed,Council Office,504,Shire of Cocos (Keeling) Islands,Operational,Unincorp. Other Territories,LOT 256 Jalan Melati,Home Island,Western Australia,3,20150216,,-12.116712,96.893894
505,Council Office,A facility where a Local Government’s main council operations are regularly performed,Council Office,505,Shire of Cocos (Keeling) Islands,Operational,Unincorp. Other Territories,Office 5 Administration Building,West Island,Western Australia,3,20150216,,-12.188508,96.829213
506,Council Office,A facility where a Local Government’s main council operations are regularly performed,Council Office,506,Shire of Collie,Operational,Collie (S),87 Throssell Street,Collie,Western Australia,5,20150216,,-33.3609559999999,116.154854
507,Council Office,A facility where a Local Government’s main council operations are regularly performed,Council Office,507,Shire of Coolgardie - Coolgardie Office,Operational,Coolgardie (S),Bayley Street,Coolgardie,Western Australia,5,20150216,,-30.954302,121.161505
508,Council Office,A facility where a Local Government’s main council operations are regularly performed,Council Office,508,Shire of Coolgardie - Kambalda Office,Operational,Coolgardie (S),Irish Mulga Drive,Kambalda West,Western Australia,5,20150216,,-31.2090479999999,121.62172
509,Council Office,A facility where a Local Government’s main council operations are regularly performed,Council Office,509,Shire of Coorow - Coorow Office,Operational,Coorow (S),Main Street,Coorow,Western Australia,5,20150216,,-29.8812649999999,116.024234
510,Council Office,A facility where a Local Government’s main council operations are regularly performed,Council Office,510,Shire of Coorow - Leeman Office,Operational,Coorow (S),Morcombe Road,Leeman,Western Australia,4,20150216,,-29.9498389999999,114.981025
511,Council Office,A facility where a Local Government’s main council operations are regularly performed,Council Office,511,Shire of Corrigin,Operational,Corrigin (S),9 Lynch Street,Corrigin,Western Australia,5,20150216,,-32.330842,117.87651
512,Council Office,A facility where a Local Government’s main council operations are regularly performed,Council Office,512,Town of Cottesloe,Operational,Cottesloe (T),109 Broome Street,Cottesloe,Western Australia,5,20150216,,-31.993625,115.755642
513,Council Office,A facility where a Local Government’s main council operations are regularly performed,Council Office,513,Shire of Cranbrook,Operational,Cranbrook (S),19 Gathorne Street,Cranbrook,Western Australia,5,20150216,,-34.295739,117.553864
514,Council Office,A facility where a Local Government’s main council operations are regularly performed,Council Office,514,Shire of Cuballing,Operational,Cuballing (S),Campbell Street,Cuballing,Western Australia,5,20150216,,-32.8191189999999,117.177484
515,Council Office,A facility where a Local Government’s main council operations are regularly performed,Council Office,515,Shire of Cue,Operational,Cue (S),LOT 2 Austin Street,Cue,Western Australia,4,20150216,,-27.4229799999999,117.898562
516,Council Office,A facility where a Local Government’s main council operations are regularly performed,Council Office,516,Shire of Cunderdin,Operational,Cunderdin (S),Lundy Avenue,Cunderdin,Western Australia,3,20150216,,-31.649593,117.238425
517,Council Office,A facility where a Local Government’s main council operations are regularly performed,Council Office,517,Shire of Dalwallinu,Operational,Dalwallinu (S),58 Johnston Street,Dalwallinu,Western Australia,4,20150216,,-30.275538,116.662735
518,Council Office,A facility where a Local Government’s main council operations are regularly performed,Council Office,518,Shire of Dandaragan,Operational,Dandaragan (S),69 Bashford Street,Jurien Bay,Western Australia,5,20150216,,-30.307065,115.037748
519,Council Office,A facility where a Local Government’s main council operations are regularly performed,Council Office,519,Shire of Dardanup - Headquarters,Operational,Dardanup (S),1 Council Drive,Eaton,Western Australia,5,20150216,,-33.3173869999999,115.717641
520,Council Office,A facility where a Local Government’s main council operations are regularly performed,Council Office,520,Shire of Dardanup - Office,Operational,Dardanup (S),3 Little Street,Dardanup,Western Australia,5,20150216,,-33.398838,115.756757
521,Council Office,A facility where a Local Government’s main council operations are regularly performed,Council Office,521,Shire of Denmark,Operational,Denmark (S),953 South Coast Highway,Denmark,Western Australia,5,20150216,,-34.9593609999999,117.365539
522,Council Office,A facility where a Local Government’s main council operations are regularly performed,Council Office,522,Shire of Derb -West Kimberley,Operational,Derby-West Kimberley (S),Corner Loch Street and Johnston Street,Derby,Western Australia,5,20150216,,-17.303012,123.628435
523,Council Office,A facility where a Local Government’s main council operations are regularly performed,Council Office,523,Shire of Derby-West Kimberley,Operational,Derby-West Kimberley (S),Corner Great Northern Highway and Forrest Road,Fitzroy Crossing,Western Australia,3,20150216,,-18.1974289999999,125.567236
524,Council Office,A facility where a Local Government’s main council operations are regularly performed,Council Office,524,Shire of Donnybrook-Balingup,Operational,Donnybrook-Balingup (S),Corner Collins Street and Bentley Street,Donnybrook,Western Australia,5,20150216,,-33.576107,115.823624
525,Council Office,A facility where a Local Government’s main council operations are regularly performed,Council Office,525,Shire of Dowerin,Operational,Dowerin (S),13 Cottrell Street,Dowerin,Western Australia,5,20150216,,-31.194131,117.032684
526,Council Office,A facility where a Local Government’s main council operations are regularly performed,Council Office,526,Shire of Dumbleyung,Operational,Dumbleyung (S),Harvey Street,Dumbleyung,Western Australia,5,20150216,,-33.313053,117.740148
527,Council Office,A facility where a Local Government’s main council operations are regularly performed,Council Office,527,Shire of Dundas,Operational,Dundas (S),88-92 Prinsep Street,Norseman,Western Australia,5,20150216,,-32.198792,121.779086
528,Council Office,A facility where a Local Government’s main council operations are regularly performed,Council Office,528,Town of East Fremantle,Operational,East Fremantle (T),135 Canning Highway,East Fremantle,Western Australia,5,20150216,,-32.0412029999999,115.763024
529,Council Office,A facility where a Local Government’s main council operations are regularly performed,Council Office,529,Shire of East Pilbara - Newman,Operational,East Pilbara (S),Corner Kalgan Drive and Newman Drive,Newman,Western Australia,5,20150216,,-23.3568519999999,119.737803
530,Council Office,A facility where a Local Government’s main council operations are regularly performed,Council Office,530,Shire of East Pilbara - Marble Bar,Operational,East Pilbara (S),20 Francis Street,Marble Bar,Western Australia,5,20150216,,-21.172836,119.745393
531,Council Office,A facility where a Local Government’s main council operations are regularly performed,Council Office,531,Shire of Esperance,Operational,Esperance (S),Windich Street,Esperance,Western Australia,5,20150216,,-33.8600529999999,121.890175
532,Council Office,A facility where a Local Government’s main council operations are regularly performed,Council Office,532,Shire of Exmouth,Operational,Exmouth (S),22 Maidstone Crescent,Exmouth,Western Australia,5,20150216,,-21.929093,114.123922
533,Council Office,A facility where a Local Government’s main council operations are regularly performed,Council Office,533,City of Fremantle,Operational,Fremantle (C),8 William Street,Fremantle,Western Australia,5,20150216,,-32.0542639999999,115.748092
534,Council Office,A facility where a Local Government’s main council operations are regularly performed,Council Office,534,Shire of Gingin,Operational,Gingin (S),7 Brockman Street,Gingin,Western Australia,5,20150216,,-31.34678,115.904016
535,Council Office,A facility where a Local Government’s main council operations are regularly performed,Council Office,535,Shire of Gnowangerup,Operational,Gnowangerup (S),28 Yougenup Road,Gnowangerup,Western Australia,5,20150216,,-33.936004,118.007271
536,Council Office,A facility where a Local Government’s main council operations are regularly performed,Council Office,536,Shire of Goomalling,Operational,Goomalling (S),32 Quinlan Street,Goomalling,Western Australia,5,20150216,,-31.299751,116.826913
537,Council Office,A facility where a Local Government’s main council operations are regularly performed,Council Office,537,City of Gosnells,Operational,Gosnells (C),2120 Albany Highway,Gosnells,Western Australia,5,20150216,,-32.065375,116.000471
538,Council Office,A facility where a Local Government’s main council operations are regularly performed,Council Office,538,City of Greater Geraldton - Headquarters,Operational,Greater Geraldton (C),63 Cathedral Avenue,Geraldton,Western Australia,5,20150216,,-28.7763409999999,114.611822
539,Council Office,A facility where a Local Government’s main council operations are regularly performed,Council Office,539,City of Greater Geraldton - Office,Operational,Greater Geraldton (C),Corner Thomas Street and Padbury Street,Mullewa,Western Australia,5,20150216,,-28.540363,115.510856
540,Council Office,A facility where a Local Government’s main council operations are regularly performed,Council Office,540,Shire of Halls Creek,Operational,Halls Creek (S),LOT 71 Thomas Street,Halls Creek,Western Australia,5,20150216,,-18.2254799999999,127.667403
541,Council Office,A facility where a Local Government’s main council operations are regularly performed,Council Office,541,Shire of Harvey - Harvey Office,Operational,Harvey (S),102 Uduc Road,Harvey,Western Australia,5,20150216,,-33.0797249999999,115.893261
542,Council Office,A facility where a Local Government’s main council operations are regularly performed,Council Office,542,Shire of Harvey,Operational,Harvey (S),7 Mulgara Street,Australind,Western Australia,5,20150216,,-33.2792729999999,115.716512
543,Council Office,A facility where a Local Government’s main council operations are regularly performed,Council Office,543,Shire of Irwin,Operational,Irwin (S),11-13 Waldeck Street,Dongara,Western Australia,5,20150216,,-29.251809,114.930659
544,Council Office,A facility where a Local Government’s main council operations are regularly performed,Council Office,544,Shire of Jerramungup,Operational,Jerramungup (S),8 Vasey Street,Jerramungup,Western Australia,5,20150216,,-33.9421209999999,118.919287
545,Council Office,A facility where a Local Government’s main council operations are regularly performed,Council Office,545,City of Joondalup,Operational,Joondalup (S),90 Boas Avenue,Joondalup,Western Australia,5,20150216,,-31.744254,115.772449
546,Council Office,A facility where a Local Government’s main council operations are regularly performed,Council Office,546,Shire of Kalamunda,Operational,Kalamunda (S),2 Railway Road,Kalamunda,Western Australia,5,20150216,,-31.9780479999999,116.061277
547,Council Office,A facility where a Local Government’s main council operations are regularly performed,Council Office,547,City of Kalgoorlie-Boulder,Operational,Kalgoorlie-Boulder (C),577 Hannan Street,Kalgoorlie,Western Australia,5,20150216,,-30.763479,121.455878
548,Council Office,A facility where a Local Government’s main council operations are regularly performed,Council Office,548,City of Karratha,Operational,Karratha (C),LOT 1083 Welcome Road,Karratha,Western Australia,5,20150216,,-20.737002,116.847831
549,Council Office,A facility where a Local Government’s main council operations are regularly performed,Council Office,549,Shire of Katanning,Operational,Katanning (S),16-24 Austral Terrace,Katanning,Western Australia,5,20150216,,-33.690344,117.554232
550,Council Office,A facility where a Local Government’s main council operations are regularly performed,Council Office,550,Shire of Kellerberrin,Operational,Kellerberrin (S),110 Massingham Street,Kellerberrin,Western Australia,5,20150216,,-31.6336689999999,117.722062
551,Council Office,A facility where a Local Government’s main council operations are regularly performed,Council Office,551,Shire of Kent,Operational,Kent (S),24-26 Richmond Street,Nyabing,Western Australia,5,20150216,,-33.541345,118.149782
552,Council Office,A facility where a Local Government’s main council operations are regularly performed,Council Office,552,Shire of Kojonup,Operational,Kojonup (S),93-95 Albany Highway,Kojonup,Western Australia,5,20150216,,-33.8322219999999,117.159273
553,Council Office,A facility where a Local Government’s main council operations are regularly performed,Council Office,553,Shire of Kondinin - Kondinin,Operational,Kondinin (S),11 Gordon Street,Kondinin,Western Australia,5,20150216,,-32.495445,118.266908
554,Council Office,A facility where a Local Government’s main council operations are regularly performed,Council Office,554,Shire of Kondinin - Hyden,Operational,Kondinin (S),12 McPherson Street,Hyden,Western Australia,3,20150216,,-32.448911,118.863024
555,Council Office,A facility where a Local Government’s main council operations are regularly performed,Council Office,555,Shire of Koorda,Operational,Koorda (S),Corner Allenby Street and Haig Street,Koorda,Western Australia,3,20150216,,-30.824555,117.484005
556,Council Office,A facility where a Local Government’s main council operations are regularly performed,Council Office,556,Shire of Kulin,Operational,Kulin (S),24 Johnston Street,Kulin,Western Australia,5,20150216,,-32.671929,118.153984
557,Council Office,A facility where a Local Government’s main council operations are regularly performed,Council Office,557,City of Kwinana,Operational,Kwinana (C),Corner Gilmore Avenue and Sulphur Road,Kwinana,Western Australia,5,20150216,,-32.24078,115.813361
558,Council Office,A facility where a Local Government’s main council operations are regularly performed,Council Office,558,Shire of Lake Grace,Operational,Lake Grace (S),1 Bishop Street,Lake Grace,Western Australia,5,20150216,,-33.101192,118.458032
559,Council Office,A facility where a Local Government’s main council operations are regularly performed,Council Office,559,Shire of Laverton,Operational,Laverton (S),9 Macpherson Place,Laverton,Western Australia,3,20150216,,-28.6273179999999,122.403927
560,Council Office,A facility where a Local Government’s main council operations are regularly performed,Council Office,560,Shire of Leonora,Operational,Leonora (S),16 Tower Street,Leonora,Western Australia,2,20150216,,-28.8884459999999,121.330271
561,Council Office,A facility where a Local Government’s main council operations are regularly performed,Council Office,561,City of Mandurah,Operational,Mandurah (C),3 Peel Street,Mandurah,Western Australia,5,20150216,,-32.5268349999999,115.721224
562,Council Office,A facility where a Local Government’s main council operations are regularly performed,Council Office,562,Shire of Manjimup,Operational,Manjimup (S),37-39 Rose Street,Manjimup,Western Australia,5,20150216,,-34.240876,116.144911
563,Council Office,A facility where a Local Government’s main council operations are regularly performed,Council Office,563,Shire of Meekatharra,Operational,Meekatharra (S),Main Street,Meekatharra,Western Australia,3,20150216,,-26.5929229999999,118.495636
564,Council Office,A facility where a Local Government’s main council operations are regularly performed,Council Office,564,City of Melville,Operational,Melville (C),10 Almondbury Road,Booragoon,Western Australia,5,20150216,,-32.032656,115.832922
565,Council Office,A facility where a Local Government’s main council operations are regularly performed,Council Office,565,Shire of Menzies,Operational,Menzies (S),124 Shenton Street,Menzies,Western Australia,5,20150216,,-29.6944779999999,121.029187
566,Council Office,A facility where a Local Government’s main council operations are regularly performed,Council Office,566,Shire of Merredin,Operational,Merredin (S),Corner King Street and Barrack Street,Merredin,Western Australia,5,20150216,,-31.480899,118.272544
567,Council Office,A facility where a Local Government’s main council operations are regularly performed,Council Office,567,Shire of Mingenew,Operational,Mingenew (S),22 Victoria Street,Mingenew,Western Australia,5,20150216,,-29.1924309999999,115.441757
568,Council Office,A facility where a Local Government’s main council operations are regularly performed,Council Office,568,Shire of Moora,Operational,Moora (S),34 Padbury Street,Moora,Western Australia,5,20150216,,-30.641561,116.007807
569,Council Office,A facility where a Local Government’s main council operations are regularly performed,Council Office,569,Shire of Morowa,Operational,Morawa (S),LOT 66 Winfield Street,Morawa,Western Australia,5,20150216,,-29.210744,116.007764
570,Council Office,A facility where a Local Government’s main council operations are regularly performed,Council Office,570,Town of Mosman Park,Operational,Mosman Park (T),Corner Bay View Terrace and Memorial Drive,Mosman Park,Western Australia,5,20150216,,-32.007737,115.768139
571,Council Office,A facility where a Local Government’s main council operations are regularly performed,Council Office,571,Shire of Mount Magnet,Operational,Mount Magnet (S),LOT 163 Hepburn Street,Mount Magnet,Western Australia,5,20150216,,-28.06253,117.849478
572,Council Office,A facility where a Local Government’s main council operations are regularly performed,Council Office,572,Shire of Mt Marshall,Operational,Mount Marshall (S),71 Monger Street,Bencubbin,Western Australia,5,20150216,,-30.811883,117.862244
573,Council Office,A facility where a Local Government’s main council operations are regularly performed,Council Office,573,Shire of Mukinbudin,Operational,Mukinbudin (S),15 Maddock Street,Mukinbudin,Western Australia,3,20150216,,-30.916051,118.207495
574,Council Office,A facility where a Local Government’s main council operations are regularly performed,Council Office,574,Shire of Mundaring,Operational,Mundaring (S),7000 Great Eastern Highway,Mundaring,Western Australia,5,20150216,,-31.90232,116.163425
575,Council Office,A facility where a Local Government’s main council operations are regularly performed,Council Office,575,Shire of Murchison,Operational,Murchison (S),114 Carnarvon Mullewa Road,Murchison,Western Australia,1,20150216,,-26.590683,115.922597
576,Council Office,A facility where a Local Government’s main council operations are regularly performed,Council Office,576,Shire of Murray,Operational,Murray (S),1915 Pinjarra Road,Pinjarra,Western Australia,5,20150216,,-32.628056,115.872159
577,Council Office,A facility where a Local Government’s main council operations are regularly performed,Council Office,577,Shire of Nannup,Operational,Nannup (S),15 Adam Street,Nannup,Western Australia,5,20150216,,-33.979456,115.765045
578,Council Office,A facility where a Local Government’s main council operations are regularly performed,Council Office,578,Shire of Narembeen,Operational,Narembeen (S),1 Longhurst Street,Narembeen,Western Australia,5,20150216,,-32.0668209999999,118.394248
579,Council Office,A facility where a Local Government’s main council operations are regularly performed,Council Office,579,Shire of Narrogin,Operational,Narrogin (S),43 Federal Street,Narrogin,Western Australia,5,20150216,,-32.933704,117.178869
580,Council Office,A facility where a Local Government’s main council operations are regularly performed,Council Office,580,Town of Narrogin,Operational,Narrogin (T),89 Earl Street,Narrogin,Western Australia,5,20150216,,-32.935304,117.176396
581,Council Office,A facility where a Local Government’s main council operations are regularly performed,Council Office,581,City of Nedlands,Operational,Nedlands (C),71 Stirling Highway,Nedlands,Western Australia,5,20150216,,-31.978376,115.806137
582,Council Office,A facility where a Local Government’s main council operations are regularly performed,Council Office,582,Shire of Ngaanyatjarraku,Operational,Ngaanyatjarraku (S),Great Central Road,Warburton Aboriginal Community,Western Australia,1,20150216,,-26.134961,126.579155
583,Council Office,A facility where a Local Government’s main council operations are regularly performed,Council Office,583,Shire of Northam,Operational,Northam (S),395 Fitzgerald Street,Northam,Western Australia,5,20150216,,-31.6603079999999,116.664188
584,Council Office,A facility where a Local Government’s main council operations are regularly performed,Council Office,584,Shire of Northampton,Operational,Northampton (S),199 Hampton Road,Northampton,Western Australia,5,20150216,,-28.35167,114.630097
585,Council Office,A facility where a Local Government’s main council operations are regularly performed,Council Office,585,Shire of Peppermint Grove,Operational,Peppermint Grove (S),1 Leake Street,Peppermint Grove,Western Australia,3,20150216,,-31.997583,115.76367
586,Council Office,A facility where a Local Government’s main council operations are regularly performed,Council Office,586,Shire of Perenjori,Operational,Perenjori (S),56 Fowler Street,Perenjori,Western Australia,5,20150216,,-29.4396899999999,116.284778
587,Council Office,A facility where a Local Government’s main council operations are regularly performed,Council Office,587,City of Perth,Operational,Perth (C),27 St Georges Terrace,Perth,Western Australia,5,20150216,,-31.9565959999999,115.860814
588,Council Office,A facility where a Local Government’s main council operations are regularly performed,Council Office,588,Shire of Pingelly,Operational,Pingelly (S),17 Queen Street,Pingelly,Western Australia,5,20150216,,-32.533136,117.08238
589,Council Office,A facility where a Local Government’s main council operations are regularly performed,Council Office,589,Shire of Plantagenet,Operational,Plantagenet (S),Lowood Road,Mount Magnet,Western Australia,1,20150216,,-34.6594279999999,117.894752
590,Council Office,A facility where a Local Government’s main council operations are regularly performed,Council Office,590,Town of Port Hedland,Operational,Port Hedland (T),McGregor Street,Port Hedland,Western Australia,3,20150216,,-20.30801,118.613919
591,Council Office,A facility where a Local Government’s main council operations are regularly performed,Council Office,591,Shire of Quairading,Operational,Quairading (S),10 Jennaberring Road,Quairading,Western Australia,5,20150216,,-32.009556,117.402348
592,Council Office,A facility where a Local Government’s main council operations are regularly performed,Council Office,592,Shire of Ravensthorpe,Operational,Ravensthorpe (S),65 Morgans Street,Ravensthorpe,Western Australia,5,20150216,,-33.5814619999999,120.046749
593,Council Office,A facility where a Local Government’s main council operations are regularly performed,Council Office,593,City of Rockingham,Operational,Rockingham (C),Civic Boulevard,Rockingham,Western Australia,3,20150216,,-32.286735,115.746468
594,Council Office,A facility where a Local Government’s main council operations are regularly performed,Council Office,594,Shire of Sandstone,Operational,Sandstone (S),Hack Street,Sandstone,Western Australia,5,20150216,,-27.987158,119.296933
595,Council Office,A facility where a Local Government’s main council operations are regularly performed,Council Office,595,Shire of Serpentine-Jarrahdale,Operational,Serpentine-Jarrahdale (S),6 Paterson Street,Mundijong,Western Australia,5,20150216,,-32.2978219999999,115.984343
596,Council Office,A facility where a Local Government’s main council operations are regularly performed,Council Office,596,Shire of Shark Bay,Operational,Shark Bay (S),65 Knight Terrace,Denham,Western Australia,5,20150216,,-25.928458,113.535413
597,Council Office,A facility where a Local Government’s main council operations are regularly performed,Council Office,597,City of South Perth,Operational,South Perth (C),Corner Sandgate Street and South Terrace,South Perth,Western Australia,5,20150216,,-31.987967,115.866658
598,Council Office,A facility where a Local Government’s main council operations are regularly performed,Council Office,598,City of Stirling,Operational,Stirling (C),25 Cedric Street,Stirling,Western Australia,5,20150216,,-31.889808,115.808853
599,Council Office,A facility where a Local Government’s main council operations are regularly performed,Council Office,599,City of Subiaco,Operational,Subiaco (C),241 Rokeby Road,Subiaco,Western Australia,5,20150216,,-31.9516439999999,115.823413
600,Council Office,A facility where a Local Government’s main council operations are regularly performed,Council Office,600,City of Swan,Operational,Swan (C),2 Midland Square,Midland,Western Australia,5,20150216,,-31.886672,116.003832
601,Council Office,A facility where a Local Government’s main council operations are regularly performed,Council Office,601,Shire of Tammin,Operational,Tammin (S),1 Donnan Street,Tammin,Western Australia,5,20150216,,-31.641382,117.484383
602,Council Office,A facility where a Local Government’s main council operations are regularly performed,Council Office,602,Shire of Three Springs,Operational,Three Springs (S),132 Railway Road,Three Springs,Western Australia,5,20150216,,-29.536149,115.764975
603,Council Office,A facility where a Local Government’s main council operations are regularly performed,Council Office,603,Shire of Toodyay,Operational,Toodyay (S),15 Fiennes Street,Toodyay,Western Australia,5,20150216,,-31.552901,116.466018
604,Council Office,A facility where a Local Government’s main council operations are regularly performed,Council Office,604,Shire of Trayning,Operational,Trayning (S),Railway Street,Trayning,Western Australia,3,20150216,,-31.1143489999999,117.791733
605,Council Office,A facility where a Local Government’s main council operations are regularly performed,Council Office,605,Shire of Upper Gascoyne,Operational,Upper Gascoyne (S),4 Scott Street,Gascoyne Junction,Western Australia,5,20150216,,-25.054345,115.208775
606,Council Office,A facility where a Local Government’s main council operations are regularly performed,Council Office,606,Town of Victoria Park,Operational,Victoria Park (T),99 Shepperton Road,Victoria Park,Western Australia,5,20150216,,-31.9717939999999,115.896343
607,Council Office,A facility where a Local Government’s main council operations are regularly performed,Council Office,607,Shire of Victoria Plains,Operational,Victoria Plains (S),28 Cavell Street,Calingiri,Western Australia,5,20150216,,-31.089057,116.448136
608,Council Office,A facility where a Local Government’s main council operations are regularly performed,Council Office,608,City of Vincent,Operational,Vincent (C),244 Vincent Street,Leederville,Western Australia,5,20150216,,-31.9359259999999,115.845443
609,Council Office,A facility where a Local Government’s main council operations are regularly performed,Council Office,609,Shire of Wagin,Operational,Wagin (S),2 Arthur Road,Wagin,Western Australia,3,20150216,,-33.310578,117.339202
610,Council Office,A facility where a Local Government’s main council operations are regularly performed,Council Office,610,Shire of Wandering,Operational,Wandering (S),22 Watts Street,Wandering,Western Australia,3,20150216,,-32.68134,116.675559
611,Council Office,A facility where a Local Government’s main council operations are regularly performed,Council Office,611,City of Wanneroo,Operational,Wanneroo (C),23 Dundebar Road,Wanneroo,Western Australia,5,20150216,,-31.749969,115.805484
612,Council Office,A facility where a Local Government’s main council operations are regularly performed,Council Office,612,Shire of Waroona,Operational,Waroona (S),52 Hesse Street,Waroona,Western Australia,5,20150216,,-32.8431449999999,115.92346
613,Council Office,A facility where a Local Government’s main council operations are regularly performed,Council Office,613,Shire of West Arthur,Operational,West Arthur (S),31 Burrowes Street,Darkan,Western Australia,5,20150216,,-33.336923,116.741292
614,Council Office,A facility where a Local Government’s main council operations are regularly performed,Council Office,614,Shire of Westonia,Operational,Westonia (S),41 Wolfram Street,Westonia,Western Australia,3,20150216,,-31.302286,118.696681
615,Council Office,A facility where a Local Government’s main council operations are regularly performed,Council Office,615,Shire of Wickepin,Operational,Wickepin (S),77 Wogolin Road,Wickepin,Western Australia,5,20150216,,-32.780999,117.504691
616,Council Office,A facility where a Local Government’s main council operations are regularly performed,Council Office,616,Shire of Williams,Operational,Williams (S),9 Brooking Street,Williams,Western Australia,5,20150216,,-33.0259349999999,116.880777
617,Council Office,A facility where a Local Government’s main council operations are regularly performed,Council Office,617,Shire of Wiluna,Operational,Wiluna (S),Scotia Street,Wiluna,Western Australia,3,20150216,,-26.5971969999999,120.228132
618,Council Office,A facility where a Local Government’s main council operations are regularly performed,Council Office,618,Shire of Wongan-Ballidu,Operational,Wongan-Ballidu (S),Corner Quinlan Street and Elphin Crescent,Wongan Hills,Western Australia,5,20150216,,-30.892536,116.718723
619,Council Office,A facility where a Local Government’s main council operations are regularly performed,Council Office,619,Shire of Woodanilling,Operational,Woodanilling (S),3316 Robinson Road,Woodanilling,Western Australia,4,20150216,,-33.5637199999999,117.432516
620,Council Office,A facility where a Local Government’s main council operations are regularly performed,Council Office,620,Shire of Wyalkatchem,Operational,Wyalkatchem (S),Corner Flint Street and Honour Avenue,Wyalkatchem,Western Australia,4,20150216,,-31.178773,117.38384
621,Council Office,A facility where a Local Government’s main council operations are regularly performed,Council Office,621,Shire of Wyndham-East Kimberley - Kununurra Office,Operational,Wyndham-East Kimberley (S),20 Coolibah Drive,Kununurra,Western Australia,5,20150216,,-15.7764779999999,128.734857
622,Council Office,A facility where a Local Government’s main council operations are regularly performed,Council Office,622,Shire of Wyndham-East Kimberley - Wyndham Office,Operational,Wyndham-East Kimberley (S),Koolama Street,Wyndham,Western Australia,5,20150216,,-15.485803,128.122787
623,Council Office,A facility where a Local Government’s main council operations are regularly performed,Council Office,623,Shire of Yalgoo,Operational,Yalgoo (S),37 Gibbons Street,Yalgoo,Western Australia,5,20150216,,-28.3418149999999,116.682381
624,Council Office,A facility where a Local Government’s main council operations are regularly performed,Council Office,624,Shire of Yilgarn,Operational,Yilgarn (S),23 Antares Street,Yalgarn,Western Australia,5,20150216,,-31.231325,119.328434
625,Council Office,A facility where a Local Government’s main council operations are regularly performed,Council Office,625,Shire of York,Operational,York (S),1 Joaquina Street,York,Western Australia,5,20150216,,-31.891622,116.767823
626,Council Office,A facility where a Local Government’s main council operations are regularly performed,Council Office,626,West Daly Regional Council,Operational,West Daly (R),,Wadeye,Northern Territory,1,20141213,,-14.2414929939999,129.52077936
